{
  "type": "FeatureCollection",
  "schema_version": "1.0.0",
  "data_status": "SYNTHETIC_DEMO",
  "source_crs": "EPSG:4326",
  "processing_crs": "EPSG:6674",
  "output_crs": "EPSG:4326",
  "horizontal_unit": "degree",
  "vertical_unit": "UNKNOWN",
  "axis_order": ["longitude", "latitude"],
  "coordinate_precision": 4,
  "transform_history": ["SYNTHETIC_FIXTURE_DIRECT_OUTPUT"],
  "geometry_status": "SYNTHETIC_DEMO_CANDIDATE",
  "source_feature_id": "SYNTHETIC-DEMO-EDGE-COLLECTION",
  "stable_feature_id": "KK-EDGES-SYNTHETIC-V1",
  "revision_id": "fixture-v1",
  "lineage": ["FIXTURE_VALUE", "not derived from official or OSM geometry"],
  "topology_status": "CANDIDATE",
  "features": [
    {"type": "Feature", "geometry": {"type": "LineString", "coordinates": [[135.7800, 35.0000], [135.7801, 35.0001]]}, "properties": {"schema_version": "1.0.0", "edge_id": "KK-SYN-E001", "from_node": "KK-SYN-N001", "to_node": "KK-SYN-N002", "data_status": "SYNTHETIC_DEMO", "source_crs": "EPSG:4326", "processing_crs": "EPSG:6674", "output_crs": "EPSG:4326", "horizontal_unit": "degree", "vertical_unit": "UNKNOWN", "axis_order": ["longitude", "latitude"], "coordinate_precision": 4, "transform_history": ["SYNTHETIC_FIXTURE_DIRECT_OUTPUT"], "geometry_status": "SYNTHETIC_DEMO_CANDIDATE", "source_feature_id": "SYNTHETIC-DEMO-E001", "stable_feature_id": "KK-SYN-E001", "revision_id": "fixture-v1", "lineage": ["FIXTURE_VALUE"], "length_m": null, "length_reason": "NOT_MEASURED", "base_clear_width_m": null, "width_reason": "NOT_MEASURED", "bridge": "UNKNOWN", "tunnel": "UNKNOWN", "level": null, "layer": null}},
    {"type": "Feature", "geometry": {"type": "LineString", "coordinates": [[135.7801, 35.0001], [135.7802, 35.0002]]}, "properties": {"schema_version": "1.0.0", "edge_id": "KK-SYN-E002", "from_node": "KK-SYN-N002", "to_node": "KK-SYN-N003", "data_status": "SYNTHETIC_DEMO", "source_crs": "EPSG:4326", "processing_crs": "EPSG:6674", "output_crs": "EPSG:4326", "horizontal_unit": "degree", "vertical_unit": "UNKNOWN", "axis_order": ["longitude", "latitude"], "coordinate_precision": 4, "transform_history": ["SYNTHETIC_FIXTURE_DIRECT_OUTPUT"], "geometry_status": "SYNTHETIC_DEMO_CANDIDATE", "source_feature_id": "SYNTHETIC-DEMO-E002", "stable_feature_id": "KK-SYN-E002", "revision_id": "fixture-v1", "lineage": ["FIXTURE_VALUE"], "length_m": null, "length_reason": "NOT_MEASURED", "base_clear_width_m": null, "width_reason": "NOT_MEASURED", "bridge": "UNKNOWN", "tunnel": "UNKNOWN", "level": null, "layer": null}}
  ]
}
