{"features":[{"geometry":{"coordinates":[139.4830249,35.3062274],"type":"Point"},"properties":{"data_status":"REAL_VGI_CANDIDATE","entrance_status":"UNKNOWN","entrance_status_reason":"Candidate graph vertex is not a field-verified entrance","geometry_status":"SOURCE_TRACEABLE_REAL","lineage":["exact shared OSM source vertex; no nearest-neighbour join"],"node_id":"FJ-OSM-N-1922FF848B18A1BF","node_role":"candidate_graph_vertex","revision_id":"20260830-r1","source_class":"VGI","source_feature_id":"osm-coordinate/139.4830249,35.3062274","stable_feature_id":"fujisawa-enoshima:node:fj-osm-n-1922ff848b18a1bf"},"type":"Feature"},{"geometry":{"coordinates":[139.4834828,35.306642],"type":"Point"},"properties":{"data_status":"REAL_VGI_CANDIDATE","entrance_status":"UNKNOWN","entrance_status_reason":"Candidate graph vertex is not a field-verified entrance","geometry_status":"SOURCE_TRACEABLE_REAL","lineage":["exact shared OSM source vertex; no nearest-neighbour join"],"node_id":"FJ-OSM-N-2174B5DE701CA180","node_role":"candidate_graph_vertex","revision_id":"20260830-r1","source_class":"VGI","source_feature_id":"osm-coordinate/139.4834828,35.3066420","stable_feature_id":"fujisawa-enoshima:node:fj-osm-n-2174b5de701ca180"},"type":"Feature"},{"geometry":{"coordinates":[139.4829525,35.3061187],"type":"Point"},"properties":{"data_status":"REAL_VGI_CANDIDATE","entrance_status":"UNKNOWN","entrance_status_reason":"Candidate graph vertex is not a field-verified entrance","geometry_status":"SOURCE_TRACEABLE_REAL","lineage":["exact shared OSM source vertex; no nearest-neighbour join"],"node_id":"FJ-OSM-N-3028DFD1A9E8CD85","node_role":"candidate_graph_vertex","revision_id":"20260830-r1","source_class":"VGI","source_feature_id":"osm-coordinate/139.4829525,35.3061187","stable_feature_id":"fujisawa-enoshima:node:fj-osm-n-3028dfd1a9e8cd85"},"type":"Feature"},{"geometry":{"coordinates":[139.4823922,35.3048829],"type":"Point"},"properties":{"data_status":"REAL_VGI_CANDIDATE","entrance_status":"UNKNOWN","entrance_status_reason":"Candidate graph vertex is not a field-verified entrance","geometry_status":"SOURCE_TRACEABLE_REAL","lineage":["exact shared OSM source vertex; no nearest-neighbour join"],"node_id":"FJ-OSM-N-427F81A68D83B44F","node_role":"candidate_graph_vertex","revision_id":"20260830-r1","source_class":"VGI","source_feature_id":"osm-coordinate/139.4823922,35.3048829","stable_feature_id":"fujisawa-enoshima:node:fj-osm-n-427f81a68d83b44f"},"type":"Feature"},{"geometry":{"coordinates":[139.4835588,35.3067108],"type":"Point"},"properties":{"data_status":"REAL_VGI_CANDIDATE","entrance_status":"UNKNOWN","entrance_status_reason":"Candidate graph vertex is not a field-verified entrance","geometry_status":"SOURCE_TRACEABLE_REAL","lineage":["exact shared OSM source vertex; no nearest-neighbour join"],"node_id":"FJ-OSM-N-61EFFD5F09BD298F","node_role":"candidate_graph_vertex","revision_id":"20260830-r1","source_class":"VGI","source_feature_id":"osm-coordinate/139.4835588,35.3067108","stable_feature_id":"fujisawa-enoshima:node:fj-osm-n-61effd5f09bd298f"},"type":"Feature"},{"geometry":{"coordinates":[139.481286,35.3024824],"type":"Point"},"properties":{"data_status":"REAL_VGI_CANDIDATE","entrance_status":"UNKNOWN","entrance_status_reason":"Candidate graph vertex is not a field-verified entrance","geometry_status":"SOURCE_TRACEABLE_REAL","lineage":["exact shared OSM source vertex; no nearest-neighbour join"],"node_id":"FJ-OSM-N-6E59DAC05D3DD353","node_role":"candidate_graph_vertex","revision_id":"20260830-r1","source_class":"VGI","source_feature_id":"osm-coordinate/139.4812860,35.3024824","stable_feature_id":"fujisawa-enoshima:node:fj-osm-n-6e59dac05d3dd353"},"type":"Feature"},{"geometry":{"coordinates":[139.4831362,35.3063281],"type":"Point"},"properties":{"data_status":"REAL_VGI_CANDIDATE","entrance_status":"UNKNOWN","entrance_status_reason":"Candidate graph vertex is not a field-verified entrance","geometry_status":"SOURCE_TRACEABLE_REAL","lineage":["exact shared OSM source vertex; no nearest-neighbour join"],"node_id":"FJ-OSM-N-7290586ED05C03A3","node_role":"candidate_graph_vertex","revision_id":"20260830-r1","source_class":"VGI","source_feature_id":"osm-coordinate/139.4831362,35.3063281","stable_feature_id":"fujisawa-enoshima:node:fj-osm-n-7290586ed05c03a3"},"type":"Feature"},{"geometry":{"coordinates":[139.483963,35.3070762],"type":"Point"},"properties":{"data_status":"REAL_VGI_CANDIDATE","entrance_status":"UNKNOWN","entrance_status_reason":"Candidate graph vertex is not a field-verified entrance","geometry_status":"SOURCE_TRACEABLE_REAL","lineage":["exact shared OSM source vertex; no nearest-neighbour join"],"node_id":"FJ-OSM-N-769BC7A0E9E6D709","node_role":"candidate_graph_vertex","revision_id":"20260830-r1","source_class":"VGI","source_feature_id":"osm-coordinate/139.4839630,35.3070762","stable_feature_id":"fujisawa-enoshima:node:fj-osm-n-769bc7a0e9e6d709"},"type":"Feature"},{"geometry":{"coordinates":[139.4829911,35.3061848],"type":"Point"},"properties":{"data_status":"REAL_VGI_CANDIDATE","entrance_status":"UNKNOWN","entrance_status_reason":"Candidate graph vertex is not a field-verified entrance","geometry_status":"SOURCE_TRACEABLE_REAL","lineage":["exact shared OSM source vertex; no nearest-neighbour join"],"node_id":"FJ-OSM-N-837A186F842196B9","node_role":"candidate_graph_vertex","revision_id":"20260830-r1","source_class":"VGI","source_feature_id":"osm-coordinate/139.4829911,35.3061848","stable_feature_id":"fujisawa-enoshima:node:fj-osm-n-837a186f842196b9"},"type":"Feature"},{"geometry":{"coordinates":[139.4827928,35.3057642],"type":"Point"},"properties":{"data_status":"REAL_VGI_CANDIDATE","entrance_status":"UNKNOWN","entrance_status_reason":"Candidate graph vertex is not a field-verified entrance","geometry_status":"SOURCE_TRACEABLE_REAL","lineage":["exact shared OSM source vertex; no nearest-neighbour join"],"node_id":"FJ-OSM-N-96B0236BB319D695","node_role":"candidate_graph_vertex","revision_id":"20260830-r1","source_class":"VGI","source_feature_id":"osm-coordinate/139.4827928,35.3057642","stable_feature_id":"fujisawa-enoshima:node:fj-osm-n-96b0236bb319d695"},"type":"Feature"},{"geometry":{"coordinates":[139.4836389,35.3067833],"type":"Point"},"properties":{"data_status":"REAL_VGI_CANDIDATE","entrance_status":"UNKNOWN","entrance_status_reason":"Candidate graph vertex is not a field-verified entrance","geometry_status":"SOURCE_TRACEABLE_REAL","lineage":["exact shared OSM source vertex; no nearest-neighbour join"],"node_id":"FJ-OSM-N-B105EE75F3D02C75","node_role":"candidate_graph_vertex","revision_id":"20260830-r1","source_class":"VGI","source_feature_id":"osm-coordinate/139.4836389,35.3067833","stable_feature_id":"fujisawa-enoshima:node:fj-osm-n-b105ee75f3d02c75"},"type":"Feature"},{"geometry":{"coordinates":[139.4825277,35.3051907],"type":"Point"},"properties":{"data_status":"REAL_VGI_CANDIDATE","entrance_status":"UNKNOWN","entrance_status_reason":"Candidate graph vertex is not a field-verified entrance","geometry_status":"SOURCE_TRACEABLE_REAL","lineage":["exact shared OSM source vertex; no nearest-neighbour join"],"node_id":"FJ-OSM-N-B177C559B8FE9B16","node_role":"candidate_graph_vertex","revision_id":"20260830-r1","source_class":"VGI","source_feature_id":"osm-coordinate/139.4825277,35.3051907","stable_feature_id":"fujisawa-enoshima:node:fj-osm-n-b177c559b8fe9b16"},"type":"Feature"},{"geometry":{"coordinates":[139.4828872,35.3059914],"type":"Point"},"properties":{"data_status":"REAL_VGI_CANDIDATE","entrance_status":"UNKNOWN","entrance_status_reason":"Candidate graph vertex is not a field-verified entrance","geometry_status":"SOURCE_TRACEABLE_REAL","lineage":["exact shared OSM source vertex; no nearest-neighbour join"],"node_id":"FJ-OSM-N-BB5AB6061E7A0973","node_role":"candidate_graph_vertex","revision_id":"20260830-r1","source_class":"VGI","source_feature_id":"osm-coordinate/139.4828872,35.3059914","stable_feature_id":"fujisawa-enoshima:node:fj-osm-n-bb5ab6061e7a0973"},"type":"Feature"},{"geometry":{"coordinates":[139.4826129,35.3053843],"type":"Point"},"properties":{"data_status":"REAL_VGI_CANDIDATE","entrance_status":"UNKNOWN","entrance_status_reason":"Candidate graph vertex is not a field-verified entrance","geometry_status":"SOURCE_TRACEABLE_REAL","lineage":["exact shared OSM source vertex; no nearest-neighbour join"],"node_id":"FJ-OSM-N-C4B69FE493E49647","node_role":"candidate_graph_vertex","revision_id":"20260830-r1","source_class":"VGI","source_feature_id":"osm-coordinate/139.4826129,35.3053843","stable_feature_id":"fujisawa-enoshima:node:fj-osm-n-c4b69fe493e49647"},"type":"Feature"},{"geometry":{"coordinates":[139.4816085,35.3031939],"type":"Point"},"properties":{"data_status":"REAL_VGI_CANDIDATE","entrance_status":"UNKNOWN","entrance_status_reason":"Candidate graph vertex is not a field-verified entrance","geometry_status":"SOURCE_TRACEABLE_REAL","lineage":["exact shared OSM source vertex; no nearest-neighbour join"],"node_id":"FJ-OSM-N-D99ABD7E268CF549","node_role":"candidate_graph_vertex","revision_id":"20260830-r1","source_class":"VGI","source_feature_id":"osm-coordinate/139.4816085,35.3031939","stable_feature_id":"fujisawa-enoshima:node:fj-osm-n-d99abd7e268cf549"},"type":"Feature"},{"geometry":{"coordinates":[139.4829218,35.3060543],"type":"Point"},"properties":{"data_status":"REAL_VGI_CANDIDATE","entrance_status":"UNKNOWN","entrance_status_reason":"Candidate graph vertex is not a field-verified entrance","geometry_status":"SOURCE_TRACEABLE_REAL","lineage":["exact shared OSM source vertex; no nearest-neighbour join"],"node_id":"FJ-OSM-N-E2DCA393810CEBCA","node_role":"candidate_graph_vertex","revision_id":"20260830-r1","source_class":"VGI","source_feature_id":"osm-coordinate/139.4829218,35.3060543","stable_feature_id":"fujisawa-enoshima:node:fj-osm-n-e2dca393810cebca"},"type":"Feature"}],"metadata":{"axis_order":"longitude_latitude","coordinate_precision":7,"geometry_status":"SOURCE_TRACEABLE_REAL","horizontal_unit":"degree","lineage":["fixed-time bounded OSM source","candidate graph; no field or administrative validation"],"output_crs":"EPSG:4326","processing_crs":"EPSG:4326","revision_id":"20260830-r1","schema_version":"2.0.0","source_crs":"EPSG:4326","source_feature_id":"way/27423903+way/27423906","stable_feature_id":"FUJISAWA-ENOSHIMA-CANDIDATE-GRAPH-V1","topology_status":"CANDIDATE","transform_history":["segmented only at exact OSM geometry vertices; no inferred joins"],"vertical_unit":"UNKNOWN"},"type":"FeatureCollection"}
