{"features":[{"geometry":{"coordinates":[[[135.68,35.00916667],[135.68,35.009375],[135.68,35.00958333],[135.6802,35.00958333],[135.6802,35.00916667],[135.68,35.00916667]]],"type":"Polygon"},"id":"kyoto-arashiyama:a31b-5235-max:00108164","properties":{"connection_status":"NOT_CONNECTED","data_class":"OFFICIAL_METADATA_ONLY","depth_rank_code":1,"geometry_status":"PREPARED_NOT_CONNECTED","hazard_type":"FLOOD","inundation_depth_m":null,"inundation_depth_reason":"A31b_201 is retained as an official category code and is not converted to a measured depth","official_closure":null,"official_closure_reason":"The hazard polygon is not an official road-closure record","output_axis_order":"longitude_latitude","output_crs":"EPSG:4326","revision_id":"mlit-a31b-2025-5235-max-preview-v2","scenario_state":"UNKNOWN","scenario_state_reason":"Hazard overlap alone must not create a closure or passage state","source_axis_order":"x_y_as_stored_in_geojson","source_class":"OFFICIAL","source_crs":"EPSG:6668","source_feature_id":"A31b-20-25_10_5235#feature/108164","source_id":"mlit-ksj-a31b-2025-5235-max","source_sha256":"5879b87f51b14414ae3698432d765cc565e5a9d48be4b62eb1ce646da5b7e96c","stable_feature_id":"kyoto-arashiyama:a31b-5235-max:00108164","transform_history":["Read checksum-bound A31b GeoJSON member from retained ZIP","Transform EPSG:6668 x/y coordinates to EPSG:4326 longitude/latitude with always_xy","Intersect polygonal geometry with the declared Arashiyama bbox"]},"type":"Feature"},{"geometry":{"coordinates":[[[135.68,35.00979167],[135.68,35.01],[135.6802,35.01],[135.6802,35.00979167],[135.68,35.00979167]]],"type":"Polygon"},"id":"kyoto-arashiyama:a31b-5235-max:00108356","properties":{"connection_status":"NOT_CONNECTED","data_class":"OFFICIAL_METADATA_ONLY","depth_rank_code":1,"geometry_status":"PREPARED_NOT_CONNECTED","hazard_type":"FLOOD","inundation_depth_m":null,"inundation_depth_reason":"A31b_201 is retained as an official category code and is not converted to a measured depth","official_closure":null,"official_closure_reason":"The hazard polygon is not an official road-closure record","output_axis_order":"longitude_latitude","output_crs":"EPSG:4326","revision_id":"mlit-a31b-2025-5235-max-preview-v2","scenario_state":"UNKNOWN","scenario_state_reason":"Hazard overlap alone must not create a closure or passage state","source_axis_order":"x_y_as_stored_in_geojson","source_class":"OFFICIAL","source_crs":"EPSG:6668","source_feature_id":"A31b-20-25_10_5235#feature/108356","source_id":"mlit-ksj-a31b-2025-5235-max","source_sha256":"5879b87f51b14414ae3698432d765cc565e5a9d48be4b62eb1ce646da5b7e96c","stable_feature_id":"kyoto-arashiyama:a31b-5235-max:00108356","transform_history":["Read checksum-bound A31b GeoJSON member from retained ZIP","Transform EPSG:6668 x/y coordinates to EPSG:4326 longitude/latitude with always_xy","Intersect polygonal geometry with the declared Arashiyama bbox"]},"type":"Feature"},{"geometry":{"coordinates":[[[135.67875,35.01020833],[135.6784375,35.01020833],[135.6784375,35.01041667],[135.67875,35.01041667],[135.67875,35.01020833]]],"type":"Polygon"},"id":"kyoto-arashiyama:a31b-5235-max:00108570","properties":{"connection_status":"NOT_CONNECTED","data_class":"OFFICIAL_METADATA_ONLY","depth_rank_code":1,"geometry_status":"PREPARED_NOT_CONNECTED","hazard_type":"FLOOD","inundation_depth_m":null,"inundation_depth_reason":"A31b_201 is retained as an official category code and is not converted to a measured depth","official_closure":null,"official_closure_reason":"The hazard polygon is not an official road-closure record","output_axis_order":"longitude_latitude","output_crs":"EPSG:4326","revision_id":"mlit-a31b-2025-5235-max-preview-v2","scenario_state":"UNKNOWN","scenario_state_reason":"Hazard overlap alone must not create a closure or passage state","source_axis_order":"x_y_as_stored_in_geojson","source_class":"OFFICIAL","source_crs":"EPSG:6668","source_feature_id":"A31b-20-25_10_5235#feature/108570","source_id":"mlit-ksj-a31b-2025-5235-max","source_sha256":"5879b87f51b14414ae3698432d765cc565e5a9d48be4b62eb1ce646da5b7e96c","stable_feature_id":"kyoto-arashiyama:a31b-5235-max:00108570","transform_history":["Read checksum-bound A31b GeoJSON member from retained ZIP","Transform EPSG:6668 x/y coordinates to EPSG:4326 longitude/latitude with always_xy","Intersect polygonal geometry with the declared Arashiyama bbox"]},"type":"Feature"},{"geometry":{"coordinates":[[[135.67875,35.010625],[135.6790625,35.010625],[135.679375,35.010625],[135.6796875,35.010625],[135.6796875,35.01041667],[135.679375,35.01041667],[135.6790625,35.01041667],[135.67875,35.01041667],[135.67875,35.010625]]],"type":"Polygon"},"id":"kyoto-arashiyama:a31b-5235-max:00108669","properties":{"connection_status":"NOT_CONNECTED","data_class":"OFFICIAL_METADATA_ONLY","depth_rank_code":1,"geometry_status":"PREPARED_NOT_CONNECTED","hazard_type":"FLOOD","inundation_depth_m":null,"inundation_depth_reason":"A31b_201 is retained as an official category code and is not converted to a measured depth","official_closure":null,"official_closure_reason":"The hazard polygon is not an official road-closure record","output_axis_order":"longitude_latitude","output_crs":"EPSG:4326","revision_id":"mlit-a31b-2025-5235-max-preview-v2","scenario_state":"UNKNOWN","scenario_state_reason":"Hazard overlap alone must not create a closure or passage state","source_axis_order":"x_y_as_stored_in_geojson","source_class":"OFFICIAL","source_crs":"EPSG:6668","source_feature_id":"A31b-20-25_10_5235#feature/108669","source_id":"mlit-ksj-a31b-2025-5235-max","source_sha256":"5879b87f51b14414ae3698432d765cc565e5a9d48be4b62eb1ce646da5b7e96c","stable_feature_id":"kyoto-arashiyama:a31b-5235-max:00108669","transform_history":["Read checksum-bound A31b GeoJSON member from retained ZIP","Transform EPSG:6668 x/y coordinates to EPSG:4326 longitude/latitude with always_xy","Intersect polygonal geometry with the declared Arashiyama bbox"]},"type":"Feature"},{"geometry":{"coordinates":[[[135.6790625,35.01104167],[135.6790625,35.01125],[135.679375,35.01125],[135.679375,35.01104167],[135.6790625,35.01104167]]],"type":"Polygon"},"id":"kyoto-arashiyama:a31b-5235-max:00108979","properties":{"connection_status":"NOT_CONNECTED","data_class":"OFFICIAL_METADATA_ONLY","depth_rank_code":1,"geometry_status":"PREPARED_NOT_CONNECTED","hazard_type":"FLOOD","inundation_depth_m":null,"inundation_depth_reason":"A31b_201 is retained as an official category code and is not converted to a measured depth","official_closure":null,"official_closure_reason":"The hazard polygon is not an official road-closure record","output_axis_order":"longitude_latitude","output_crs":"EPSG:4326","revision_id":"mlit-a31b-2025-5235-max-preview-v2","scenario_state":"UNKNOWN","scenario_state_reason":"Hazard overlap alone must not create a closure or passage state","source_axis_order":"x_y_as_stored_in_geojson","source_class":"OFFICIAL","source_crs":"EPSG:6668","source_feature_id":"A31b-20-25_10_5235#feature/108979","source_id":"mlit-ksj-a31b-2025-5235-max","source_sha256":"5879b87f51b14414ae3698432d765cc565e5a9d48be4b62eb1ce646da5b7e96c","stable_feature_id":"kyoto-arashiyama:a31b-5235-max:00108979","transform_history":["Read checksum-bound A31b GeoJSON member from retained ZIP","Transform EPSG:6668 x/y coordinates to EPSG:4326 longitude/latitude with always_xy","Intersect polygonal geometry with the declared Arashiyama bbox"]},"type":"Feature"},{"geometry":{"coordinates":[[[135.675625,35.01375],[135.675625,35.01354167],[135.6753125,35.01354167],[135.6753125,35.01375],[135.675625,35.01375]]],"type":"Polygon"},"id":"kyoto-arashiyama:a31b-5235-max:00110249","properties":{"connection_status":"NOT_CONNECTED","data_class":"OFFICIAL_METADATA_ONLY","depth_rank_code":1,"geometry_status":"PREPARED_NOT_CONNECTED","hazard_type":"FLOOD","inundation_depth_m":null,"inundation_depth_reason":"A31b_201 is retained as an official category code and is not converted to a measured depth","official_closure":null,"official_closure_reason":"The hazard polygon is not an official road-closure record","output_axis_order":"longitude_latitude","output_crs":"EPSG:4326","revision_id":"mlit-a31b-2025-5235-max-preview-v2","scenario_state":"UNKNOWN","scenario_state_reason":"Hazard overlap alone must not create a closure or passage state","source_axis_order":"x_y_as_stored_in_geojson","source_class":"OFFICIAL","source_crs":"EPSG:6668","source_feature_id":"A31b-20-25_10_5235#feature/110249","source_id":"mlit-ksj-a31b-2025-5235-max","source_sha256":"5879b87f51b14414ae3698432d765cc565e5a9d48be4b62eb1ce646da5b7e96c","stable_feature_id":"kyoto-arashiyama:a31b-5235-max:00110249","transform_history":["Read checksum-bound A31b GeoJSON member from retained ZIP","Transform EPSG:6668 x/y coordinates to EPSG:4326 longitude/latitude with always_xy","Intersect polygonal geometry with the declared Arashiyama bbox"]},"type":"Feature"},{"geometry":{"coordinates":[[[135.675,35.01375],[135.675,35.01395833],[135.675,35.01416667],[135.6753125,35.01416667],[135.6753125,35.01395833],[135.6753125,35.01375],[135.675,35.01375]]],"type":"Polygon"},"id":"kyoto-arashiyama:a31b-5235-max:00110540","properties":{"connection_status":"NOT_CONNECTED","data_class":"OFFICIAL_METADATA_ONLY","depth_rank_code":1,"geometry_status":"PREPARED_NOT_CONNECTED","hazard_type":"FLOOD","inundation_depth_m":null,"inundation_depth_reason":"A31b_201 is retained as an official category code and is not converted to a measured depth","official_closure":null,"official_closure_reason":"The hazard polygon is not an official road-closure record","output_axis_order":"longitude_latitude","output_crs":"EPSG:4326","revision_id":"mlit-a31b-2025-5235-max-preview-v2","scenario_state":"UNKNOWN","scenario_state_reason":"Hazard overlap alone must not create a closure or passage state","source_axis_order":"x_y_as_stored_in_geojson","source_class":"OFFICIAL","source_crs":"EPSG:6668","source_feature_id":"A31b-20-25_10_5235#feature/110540","source_id":"mlit-ksj-a31b-2025-5235-max","source_sha256":"5879b87f51b14414ae3698432d765cc565e5a9d48be4b62eb1ce646da5b7e96c","stable_feature_id":"kyoto-arashiyama:a31b-5235-max:00110540","transform_history":["Read checksum-bound A31b GeoJSON member from retained ZIP","Transform EPSG:6668 x/y coordinates to EPSG:4326 longitude/latitude with always_xy","Intersect polygonal geometry with the declared Arashiyama bbox"]},"type":"Feature"},{"geometry":{"coordinates":[[[135.675625,35.01395833],[135.675625,35.01416667],[135.6759375,35.01416667],[135.6759375,35.01395833],[135.6759375,35.01375],[135.675625,35.01375],[135.675625,35.01395833]]],"type":"Polygon"},"id":"kyoto-arashiyama:a31b-5235-max:00110541","properties":{"connection_status":"NOT_CONNECTED","data_class":"OFFICIAL_METADATA_ONLY","depth_rank_code":1,"geometry_status":"PREPARED_NOT_CONNECTED","hazard_type":"FLOOD","inundation_depth_m":null,"inundation_depth_reason":"A31b_201 is retained as an official category code and is not converted to a measured depth","official_closure":null,"official_closure_reason":"The hazard polygon is not an official road-closure record","output_axis_order":"longitude_latitude","output_crs":"EPSG:4326","revision_id":"mlit-a31b-2025-5235-max-preview-v2","scenario_state":"UNKNOWN","scenario_state_reason":"Hazard overlap alone must not create a closure or passage state","source_axis_order":"x_y_as_stored_in_geojson","source_class":"OFFICIAL","source_crs":"EPSG:6668","source_feature_id":"A31b-20-25_10_5235#feature/110541","source_id":"mlit-ksj-a31b-2025-5235-max","source_sha256":"5879b87f51b14414ae3698432d765cc565e5a9d48be4b62eb1ce646da5b7e96c","stable_feature_id":"kyoto-arashiyama:a31b-5235-max:00110541","transform_history":["Read checksum-bound A31b GeoJSON member from retained ZIP","Transform EPSG:6668 x/y coordinates to EPSG:4326 longitude/latitude with always_xy","Intersect polygonal geometry with the declared Arashiyama bbox"]},"type":"Feature"},{"geometry":{"coordinates":[[[135.67625,35.014375],[135.67625,35.01458333],[135.6765625,35.01458333],[135.6765625,35.014375],[135.67625,35.014375]]],"type":"Polygon"},"id":"kyoto-arashiyama:a31b-5235-max:00110739","properties":{"connection_status":"NOT_CONNECTED","data_class":"OFFICIAL_METADATA_ONLY","depth_rank_code":1,"geometry_status":"PREPARED_NOT_CONNECTED","hazard_type":"FLOOD","inundation_depth_m":null,"inundation_depth_reason":"A31b_201 is retained as an official category code and is not converted to a measured depth","official_closure":null,"official_closure_reason":"The hazard polygon is not an official road-closure record","output_axis_order":"longitude_latitude","output_crs":"EPSG:4326","revision_id":"mlit-a31b-2025-5235-max-preview-v2","scenario_state":"UNKNOWN","scenario_state_reason":"Hazard overlap alone must not create a closure or passage state","source_axis_order":"x_y_as_stored_in_geojson","source_class":"OFFICIAL","source_crs":"EPSG:6668","source_feature_id":"A31b-20-25_10_5235#feature/110739","source_id":"mlit-ksj-a31b-2025-5235-max","source_sha256":"5879b87f51b14414ae3698432d765cc565e5a9d48be4b62eb1ce646da5b7e96c","stable_feature_id":"kyoto-arashiyama:a31b-5235-max:00110739","transform_history":["Read checksum-bound A31b GeoJSON member from retained ZIP","Transform EPSG:6668 x/y coordinates to EPSG:4326 longitude/latitude with always_xy","Intersect polygonal geometry with the declared Arashiyama bbox"]},"type":"Feature"},{"geometry":{"coordinates":[[[135.68,35.01479167],[135.68,35.01458333],[135.6796875,35.01458333],[135.6796875,35.01479167],[135.679375,35.01479167],[135.679375,35.015],[135.6796875,35.015],[135.68,35.015],[135.68,35.01479167]]],"type":"Polygon"},"id":"kyoto-arashiyama:a31b-5235-max:00110964","properties":{"connection_status":"NOT_CONNECTED","data_class":"OFFICIAL_METADATA_ONLY","depth_rank_code":1,"geometry_status":"PREPARED_NOT_CONNECTED","hazard_type":"FLOOD","inundation_depth_m":null,"inundation_depth_reason":"A31b_201 is retained as an official category code and is not converted to a measured depth","official_closure":null,"official_closure_reason":"The hazard polygon is not an official road-closure record","output_axis_order":"longitude_latitude","output_crs":"EPSG:4326","revision_id":"mlit-a31b-2025-5235-max-preview-v2","scenario_state":"UNKNOWN","scenario_state_reason":"Hazard overlap alone must not create a closure or passage state","source_axis_order":"x_y_as_stored_in_geojson","source_class":"OFFICIAL","source_crs":"EPSG:6668","source_feature_id":"A31b-20-25_10_5235#feature/110964","source_id":"mlit-ksj-a31b-2025-5235-max","source_sha256":"5879b87f51b14414ae3698432d765cc565e5a9d48be4b62eb1ce646da5b7e96c","stable_feature_id":"kyoto-arashiyama:a31b-5235-max:00110964","transform_history":["Read checksum-bound A31b GeoJSON member from retained ZIP","Transform EPSG:6668 x/y coordinates to EPSG:4326 longitude/latitude with always_xy","Intersect polygonal geometry with the declared Arashiyama bbox"]},"type":"Feature"},{"geometry":{"coordinates":[[[135.6790625,35.015],[135.67875,35.015],[135.67875,35.01479167],[135.6784375,35.01479167],[135.6784375,35.01458333],[135.678125,35.01458333],[135.678125,35.01479167],[135.678125,35.015],[135.6778125,35.015],[135.6775,35.015],[135.6775,35.01520833],[135.6771875,35.01520833],[135.6771875,35.0153],[135.6790625,35.0153],[135.6790625,35.01520833],[135.6790625,35.015]]],"type":"Polygon"},"id":"kyoto-arashiyama:a31b-5235-max:00111222","properties":{"connection_status":"NOT_CONNECTED","data_class":"OFFICIAL_METADATA_ONLY","depth_rank_code":1,"geometry_status":"PREPARED_NOT_CONNECTED","hazard_type":"FLOOD","inundation_depth_m":null,"inundation_depth_reason":"A31b_201 is retained as an official category code and is not converted to a measured depth","official_closure":null,"official_closure_reason":"The hazard polygon is not an official road-closure record","output_axis_order":"longitude_latitude","output_crs":"EPSG:4326","revision_id":"mlit-a31b-2025-5235-max-preview-v2","scenario_state":"UNKNOWN","scenario_state_reason":"Hazard overlap alone must not create a closure or passage state","source_axis_order":"x_y_as_stored_in_geojson","source_class":"OFFICIAL","source_crs":"EPSG:6668","source_feature_id":"A31b-20-25_10_5235#feature/111222","source_id":"mlit-ksj-a31b-2025-5235-max","source_sha256":"5879b87f51b14414ae3698432d765cc565e5a9d48be4b62eb1ce646da5b7e96c","stable_feature_id":"kyoto-arashiyama:a31b-5235-max:00111222","transform_history":["Read checksum-bound A31b GeoJSON member from retained ZIP","Transform EPSG:6668 x/y coordinates to EPSG:4326 longitude/latitude with always_xy","Intersect polygonal geometry with the declared Arashiyama bbox"]},"type":"Feature"},{"geometry":{"coordinates":[[[135.68,35.015],[135.68,35.01520833],[135.6802,35.01520833],[135.6802,35.015],[135.68,35.015]]],"type":"Polygon"},"id":"kyoto-arashiyama:a31b-5235-max:00111425","properties":{"connection_status":"NOT_CONNECTED","data_class":"OFFICIAL_METADATA_ONLY","depth_rank_code":1,"geometry_status":"PREPARED_NOT_CONNECTED","hazard_type":"FLOOD","inundation_depth_m":null,"inundation_depth_reason":"A31b_201 is retained as an official category code and is not converted to a measured depth","official_closure":null,"official_closure_reason":"The hazard polygon is not an official road-closure record","output_axis_order":"longitude_latitude","output_crs":"EPSG:4326","revision_id":"mlit-a31b-2025-5235-max-preview-v2","scenario_state":"UNKNOWN","scenario_state_reason":"Hazard overlap alone must not create a closure or passage state","source_axis_order":"x_y_as_stored_in_geojson","source_class":"OFFICIAL","source_crs":"EPSG:6668","source_feature_id":"A31b-20-25_10_5235#feature/111425","source_id":"mlit-ksj-a31b-2025-5235-max","source_sha256":"5879b87f51b14414ae3698432d765cc565e5a9d48be4b62eb1ce646da5b7e96c","stable_feature_id":"kyoto-arashiyama:a31b-5235-max:00111425","transform_history":["Read checksum-bound A31b GeoJSON member from retained ZIP","Transform EPSG:6668 x/y coordinates to EPSG:4326 longitude/latitude with always_xy","Intersect polygonal geometry with the declared Arashiyama bbox"]},"type":"Feature"},{"geometry":{"coordinates":[[[135.67625,35.01166667],[135.67625,35.011875],[135.6765625,35.011875],[135.6765625,35.01166667],[135.67625,35.01166667]]],"type":"Polygon"},"id":"kyoto-arashiyama:a31b-5235-max:00262012","properties":{"connection_status":"NOT_CONNECTED","data_class":"OFFICIAL_METADATA_ONLY","depth_rank_code":2,"geometry_status":"PREPARED_NOT_CONNECTED","hazard_type":"FLOOD","inundation_depth_m":null,"inundation_depth_reason":"A31b_201 is retained as an official category code and is not converted to a measured depth","official_closure":null,"official_closure_reason":"The hazard polygon is not an official road-closure record","output_axis_order":"longitude_latitude","output_crs":"EPSG:4326","revision_id":"mlit-a31b-2025-5235-max-preview-v2","scenario_state":"UNKNOWN","scenario_state_reason":"Hazard overlap alone must not create a closure or passage state","source_axis_order":"x_y_as_stored_in_geojson","source_class":"OFFICIAL","source_crs":"EPSG:6668","source_feature_id":"A31b-20-25_10_5235#feature/262012","source_id":"mlit-ksj-a31b-2025-5235-max","source_sha256":"5879b87f51b14414ae3698432d765cc565e5a9d48be4b62eb1ce646da5b7e96c","stable_feature_id":"kyoto-arashiyama:a31b-5235-max:00262012","transform_history":["Read checksum-bound A31b GeoJSON member from retained ZIP","Transform EPSG:6668 x/y coordinates to EPSG:4326 longitude/latitude with always_xy","Intersect polygonal geometry with the declared Arashiyama bbox"]},"type":"Feature"},{"geometry":{"coordinates":[[[135.6765625,35.01354167],[135.6765625,35.01375],[135.6765625,35.01395833],[135.676875,35.01395833],[135.676875,35.01375],[135.676875,35.01354167],[135.6765625,35.01354167]]],"type":"Polygon"},"id":"kyoto-arashiyama:a31b-5235-max:00349114","properties":{"connection_status":"NOT_CONNECTED","data_class":"OFFICIAL_METADATA_ONLY","depth_rank_code":3,"geometry_status":"PREPARED_NOT_CONNECTED","hazard_type":"FLOOD","inundation_depth_m":null,"inundation_depth_reason":"A31b_201 is retained as an official category code and is not converted to a measured depth","official_closure":null,"official_closure_reason":"The hazard polygon is not an official road-closure record","output_axis_order":"longitude_latitude","output_crs":"EPSG:4326","revision_id":"mlit-a31b-2025-5235-max-preview-v2","scenario_state":"UNKNOWN","scenario_state_reason":"Hazard overlap alone must not create a closure or passage state","source_axis_order":"x_y_as_stored_in_geojson","source_class":"OFFICIAL","source_crs":"EPSG:6668","source_feature_id":"A31b-20-25_10_5235#feature/349114","source_id":"mlit-ksj-a31b-2025-5235-max","source_sha256":"5879b87f51b14414ae3698432d765cc565e5a9d48be4b62eb1ce646da5b7e96c","stable_feature_id":"kyoto-arashiyama:a31b-5235-max:00349114","transform_history":["Read checksum-bound A31b GeoJSON member from retained ZIP","Transform EPSG:6668 x/y coordinates to EPSG:4326 longitude/latitude with always_xy","Intersect polygonal geometry with the declared Arashiyama bbox"]},"type":"Feature"}],"type":"FeatureCollection"}
