{"features":[{"geometry":{"coordinates":[[139.4827928,35.3057642],[139.4826129,35.3053843],[139.4825277,35.3051907],[139.4823922,35.3048829],[139.4816085,35.3031939],[139.481286,35.3024824]],"type":"LineString"},"id":"fujisawa-enoshima:corridor:osm-way-27423903","properties":{"artifact_id":"fujisawa-osm-corridor-v1","bridge":true,"bridge_reason":null,"city_id":"fujisawa_enoshima","data_class":"REAL","geometry_status":"SOURCE_TRACEABLE_REAL","layer":1.0,"layer_reason":null,"level":null,"level_reason":"OSM level tag absent","lineage":["OpenStreetMap way/27423903","bounded candidate corridor selection; no field verification"],"revision_id":"20260830-r1","source_class":"VGI","source_feature_id":"way/27423903","source_id":"osm-overpass-fujisawa-20260830","stable_feature_id":"fujisawa-enoshima:corridor:osm-way-27423903","tunnel":"UNKNOWN","tunnel_reason":"OSM tunnel tag absent"},"type":"Feature"},{"geometry":{"coordinates":[[139.483963,35.3070762],[139.4836389,35.3067833],[139.4835588,35.3067108],[139.4834828,35.306642],[139.4831362,35.3063281],[139.4830249,35.3062274],[139.4829911,35.3061848],[139.4829525,35.3061187],[139.4829218,35.3060543],[139.4828872,35.3059914],[139.4827928,35.3057642]],"type":"LineString"},"id":"fujisawa-enoshima:corridor:osm-way-27423906","properties":{"artifact_id":"fujisawa-osm-corridor-v1","bridge":"UNKNOWN","bridge_reason":"OSM bridge tag absent","city_id":"fujisawa_enoshima","data_class":"REAL","geometry_status":"SOURCE_TRACEABLE_REAL","layer":null,"layer_reason":"OSM layer tag absent","level":null,"level_reason":"OSM level tag absent","lineage":["OpenStreetMap way/27423906","bounded candidate corridor selection; no field verification"],"revision_id":"20260830-r1","source_class":"VGI","source_feature_id":"way/27423906","source_id":"osm-overpass-fujisawa-20260830","stable_feature_id":"fujisawa-enoshima:corridor:osm-way-27423906","tunnel":"UNKNOWN","tunnel_reason":"OSM tunnel tag absent"},"type":"Feature"}],"type":"FeatureCollection"}
