{
  "type":"FeatureCollection","schema_version":"1.0.0","source_crs":"EPSG:4326","processing_crs":"EPSG:6674","output_crs":"EPSG:4326","horizontal_unit":"degree","vertical_unit":"UNKNOWN","axis_order":"lon_lat","coordinate_precision":6,"transform_history":["NOT_EXECUTED_SYNTHETIC_FIXTURE"],"geometry_status":"SYNTHETIC_DEMO_CANDIDATE","source_feature_id":"SYNTHETIC_DEMO_ARASHIYAMA_NODES_V1","stable_feature_id":"KYOTO_ARASHIYAMA_NODESET","revision_id":"r1","lineage":"Task-defined sequence; no OSM or official geometry copied",
  "features":[
    {"type":"Feature","id":"ARA-N001","geometry":{"type":"Point","coordinates":[135.678000,35.015000]},"properties":{"node_id":"ARA-N001","name_hint":"嵐電嵐山／観光駐車場側デモ点","data_class":"SYNTHETIC_DEMO","source_feature_id":"FIXTURE_NODE_001","stable_feature_id":"ARA-N001","revision_id":"r1","lineage":"FIXTURE_VALUE","geometry_status":"SYNTHETIC_DEMO_CANDIDATE"}},
    {"type":"Feature","id":"ARA-N002","geometry":{"type":"Point","coordinates":[135.677500,35.013800]},"properties":{"node_id":"ARA-N002","name_hint":"長辻通北側デモ点","data_class":"SYNTHETIC_DEMO","source_feature_id":"FIXTURE_NODE_002","stable_feature_id":"ARA-N002","revision_id":"r1","lineage":"FIXTURE_VALUE","geometry_status":"SYNTHETIC_DEMO_CANDIDATE"}},
    {"type":"Feature","id":"ARA-N003","geometry":{"type":"Point","coordinates":[135.676800,35.012400]},"properties":{"node_id":"ARA-N003","name_hint":"長辻通南側デモ点","data_class":"SYNTHETIC_DEMO","source_feature_id":"FIXTURE_NODE_003","stable_feature_id":"ARA-N003","revision_id":"r1","lineage":"FIXTURE_VALUE","geometry_status":"SYNTHETIC_DEMO_CANDIDATE"}},
    {"type":"Feature","id":"ARA-N004","geometry":{"type":"Point","coordinates":[135.677200,35.011300]},"properties":{"node_id":"ARA-N004","name_hint":"渡月橋北詰側デモ点","data_class":"SYNTHETIC_DEMO","source_feature_id":"FIXTURE_NODE_004","stable_feature_id":"ARA-N004","revision_id":"r1","lineage":"FIXTURE_VALUE","geometry_status":"SYNTHETIC_DEMO_CANDIDATE"}},
    {"type":"Feature","id":"ARA-N005","geometry":{"type":"Point","coordinates":[135.677800,35.010400]},"properties":{"node_id":"ARA-N005","name_hint":"橋上デモ点","data_class":"SYNTHETIC_DEMO","source_feature_id":"FIXTURE_NODE_005","stable_feature_id":"ARA-N005","revision_id":"r1","lineage":"FIXTURE_VALUE","geometry_status":"SYNTHETIC_DEMO_CANDIDATE"}},
    {"type":"Feature","id":"ARA-N006","geometry":{"type":"Point","coordinates":[135.679000,35.010000]},"properties":{"node_id":"ARA-N006","name_hint":"中之島東側デモ点","data_class":"SYNTHETIC_DEMO","source_feature_id":"FIXTURE_NODE_006","stable_feature_id":"ARA-N006","revision_id":"r1","lineage":"FIXTURE_VALUE","geometry_status":"SYNTHETIC_DEMO_CANDIDATE"}}
  ]
}
