{
  "type":"FeatureCollection","schema_version":"1.0.0","source_crs":"EPSG:4326","processing_crs":"EPSG:6674","output_crs":"EPSG:4326","horizontal_unit":"degree","vertical_unit":"UNKNOWN","axis_order":"lon_lat","coordinate_precision":6,"transform_history":["NOT_EXECUTED_SYNTHETIC_FIXTURE"],"geometry_status":"SYNTHETIC_DEMO_CANDIDATE","source_feature_id":"SYNTHETIC_DEMO_ARASHIYAMA_EDGES_V1","stable_feature_id":"KYOTO_ARASHIYAMA_EDGESET","revision_id":"r1","lineage":"Task-defined sequence; no road ledger OSM or official geometry copied",
  "features":[
    {"type":"Feature","id":"ARA-E001","geometry":{"type":"LineString","coordinates":[[135.678000,35.015000],[135.677500,35.013800]]},"properties":{"edge_id":"ARA-E001","from_node":"ARA-N001","to_node":"ARA-N002","direction":"BOTH","data_class":"SYNTHETIC_DEMO","source_feature_id":"FIXTURE_EDGE_001","stable_feature_id":"ARA-E001","revision_id":"r1","lineage":"FIXTURE_VALUE","geometry_status":"SYNTHETIC_DEMO_CANDIDATE","topology_status":"CANDIDATE","accessibility_state":"UNKNOWN","bridge":"UNKNOWN","tunnel":"UNKNOWN","level":"UNKNOWN","layer":"UNKNOWN"}},
    {"type":"Feature","id":"ARA-E002","geometry":{"type":"LineString","coordinates":[[135.677500,35.013800],[135.676800,35.012400]]},"properties":{"edge_id":"ARA-E002","from_node":"ARA-N002","to_node":"ARA-N003","direction":"BOTH","data_class":"SYNTHETIC_DEMO","source_feature_id":"FIXTURE_EDGE_002","stable_feature_id":"ARA-E002","revision_id":"r1","lineage":"FIXTURE_VALUE","geometry_status":"SYNTHETIC_DEMO_CANDIDATE","topology_status":"CANDIDATE","accessibility_state":"UNKNOWN","bridge":"UNKNOWN","tunnel":"UNKNOWN","level":"UNKNOWN","layer":"UNKNOWN"}},
    {"type":"Feature","id":"ARA-E003","geometry":{"type":"LineString","coordinates":[[135.676800,35.012400],[135.677200,35.011300]]},"properties":{"edge_id":"ARA-E003","from_node":"ARA-N003","to_node":"ARA-N004","direction":"BOTH","data_class":"SYNTHETIC_DEMO","source_feature_id":"FIXTURE_EDGE_003","stable_feature_id":"ARA-E003","revision_id":"r1","lineage":"FIXTURE_VALUE","geometry_status":"SYNTHETIC_DEMO_CANDIDATE","topology_status":"CANDIDATE","accessibility_state":"UNKNOWN","bridge":"UNKNOWN","tunnel":"UNKNOWN","level":"UNKNOWN","layer":"UNKNOWN"}},
    {"type":"Feature","id":"ARA-E004","geometry":{"type":"LineString","coordinates":[[135.677200,35.011300],[135.677800,35.010400]]},"properties":{"edge_id":"ARA-E004","from_node":"ARA-N004","to_node":"ARA-N005","direction":"BOTH","data_class":"SYNTHETIC_DEMO","source_feature_id":"FIXTURE_EDGE_004","stable_feature_id":"ARA-E004","revision_id":"r1","lineage":"FIXTURE_VALUE","geometry_status":"SYNTHETIC_DEMO_CANDIDATE","topology_status":"CANDIDATE","accessibility_state":"UNKNOWN","bridge":"UNKNOWN","tunnel":"UNKNOWN","level":"UNKNOWN","layer":"UNKNOWN"}},
    {"type":"Feature","id":"ARA-E005","geometry":{"type":"LineString","coordinates":[[135.677800,35.010400],[135.679000,35.010000]]},"properties":{"edge_id":"ARA-E005","from_node":"ARA-N005","to_node":"ARA-N006","direction":"BOTH","data_class":"SYNTHETIC_DEMO","source_feature_id":"FIXTURE_EDGE_005","stable_feature_id":"ARA-E005","revision_id":"r1","lineage":"FIXTURE_VALUE","geometry_status":"SYNTHETIC_DEMO_CANDIDATE","topology_status":"CANDIDATE","accessibility_state":"UNKNOWN","bridge":"UNKNOWN","tunnel":"UNKNOWN","level":"UNKNOWN","layer":"UNKNOWN"}}
  ]
}
