{"features":[{"geometry":{"coordinates":[[[139.480473,35.3020904],[139.480363,35.3020901],[139.4803626,35.3021802],[139.4804726,35.3021806],[139.480473,35.3020904]]],"type":"Polygon"},"id":"sha256:04a800ce9ded48e32741ea54d7710b61210a6517e646e79eac89c67e5bc445eb","properties":{"A40_001":"神奈川県","A40_002":"14","A40_003":"1m以上 〜 2m未満"},"type":"Feature"},{"geometry":{"coordinates":[[[139.4805829,35.3020907],[139.4805833,35.3020006],[139.4804734,35.3020003],[139.480473,35.3020904],[139.4805829,35.3020907]]],"type":"Polygon"},"id":"sha256:1700eedf2ac762c4a8c372007bdd48914bfd854c7ea209a0c6b8c14469b8bb16","properties":{"A40_001":"神奈川県","A40_002":"14","A40_003":"3m以上 〜 4m未満"},"type":"Feature"},{"geometry":{"coordinates":[[[139.4804738,35.3019101],[139.4803638,35.3019098],[139.4803634,35.302],[139.4804734,35.3020003],[139.4804738,35.3019101]]],"type":"Polygon"},"id":"sha256:1d9e72f22cee43b7e47063b0d2715b77bb2a2bbaaf423992d1ae3f8e035621f4","properties":{"A40_001":"神奈川県","A40_002":"14","A40_003":"0.01m以上 〜 0.3m未満"},"type":"Feature"},{"geometry":{"coordinates":[[[139.4828672,35.3078665],[139.4828676,35.3077763],[139.4827576,35.307776],[139.4827572,35.3078662],[139.4828672,35.3078665]]],"type":"Polygon"},"id":"sha256:30690e412df87a19bb5d18496d2d2252ec2f84b870b411987ae2b9a85b8fbe62","properties":{"A40_001":"神奈川県","A40_002":"14","A40_003":"4m以上 〜 5m未満"},"type":"Feature"},{"geometry":{"coordinates":[[[139.4828672,35.3078665],[139.4828668,35.3079566],[139.4829768,35.3079569],[139.4829771,35.3078668],[139.4828672,35.3078665]]],"type":"Polygon"},"id":"sha256:352e691e195539548194f9ab6a1c369f378b133926f8915ebdff0f29e65c33fa","properties":{"A40_001":"神奈川県","A40_002":"14","A40_003":"4m以上 〜 5m未満"},"type":"Feature"},{"geometry":{"coordinates":[[[139.4831963,35.3080477],[139.4830863,35.3080474],[139.4830859,35.3081375],[139.4831959,35.3081379],[139.4831963,35.3080477]]],"type":"Polygon"},"id":"sha256:3e3d01fe8d4eb77d7551b0747908494c6e31b2fda0f2c7fae285df83ce06c3f6","properties":{"A40_001":"神奈川県","A40_002":"14","A40_003":"4m以上 〜 5m未満"},"type":"Feature"},{"geometry":{"coordinates":[[[139.4841883,35.3075097],[139.4840784,35.3075094],[139.484078,35.3075996],[139.4841879,35.3075999],[139.4841883,35.3075097]]],"type":"Polygon"},"id":"sha256:4adf86a69dcf0e6778b6f8d798a2dab8a92a94154b6db9d9051991b8e3a7df70","properties":{"A40_001":"神奈川県","A40_002":"14","A40_003":"4m以上 〜 5m未満"},"type":"Feature"},{"geometry":{"coordinates":[[[139.4802311,35.3071377],[139.4802307,35.3072278],[139.4803407,35.3072281],[139.4803411,35.307138],[139.4802311,35.3071377]]],"type":"Polygon"},"id":"sha256:535dba79fc0264c1353a101b362874875cfcb43c64b8f9dcf8d723eda487d543","properties":{"A40_001":"神奈川県","A40_002":"14","A40_003":"5m以上 〜 10m未満"},"type":"Feature"},{"geometry":{"coordinates":[[[139.4829771,35.3078668],[139.4829768,35.3079569],[139.4830867,35.3079573],[139.4830871,35.3078671],[139.4829771,35.3078668]]],"type":"Polygon"},"id":"sha256:5f69dec1c07bda4d89562720a12f949306128901c248df955fb44535cf043b37","properties":{"A40_001":"神奈川県","A40_002":"14","A40_003":"5m以上 〜 10m未満"},"type":"Feature"},{"geometry":{"coordinates":[[[139.4830957,35.305884],[139.483096,35.3057939],[139.4830964,35.3057037],[139.4829865,35.3057034],[139.4829861,35.3057936],[139.4829857,35.3058837],[139.4830957,35.305884]]],"type":"Polygon"},"id":"sha256:61f2acb9c5baddc3118a973f1816fad8808f393ce447ec00cd179afc525f7669","properties":{"A40_001":"神奈川県","A40_002":"14","A40_003":"4m以上 〜 5m未満"},"type":"Feature"},{"geometry":{"coordinates":[[[139.4803622,35.3022704],[139.4802523,35.3022701],[139.4802519,35.3023602],[139.4803619,35.3023605],[139.4803622,35.3022704]]],"type":"Polygon"},"id":"sha256:6419945d75e532bff2263c4ed08d6aa391dfea8c27b36e449534aeb528313a5f","properties":{"A40_001":"神奈川県","A40_002":"14","A40_003":"5m以上 〜 10m未満"},"type":"Feature"},{"geometry":{"coordinates":[[[139.4833125,35.3066058],[139.4833121,35.3066959],[139.4833117,35.3067861],[139.4834217,35.3067864],[139.4834213,35.3068765],[139.4835312,35.3068768],[139.4835309,35.306967],[139.4836408,35.3069673],[139.4836404,35.3070574],[139.48364,35.3071476],[139.48375,35.3071479],[139.4837496,35.307238],[139.4838596,35.3072384],[139.48386,35.3071482],[139.4838604,35.3070581],[139.4838607,35.3069679],[139.4837508,35.3069676],[139.4837512,35.3068775],[139.4836412,35.3068772],[139.4836416,35.306787],[139.4835316,35.3067867],[139.483532,35.3066966],[139.4834221,35.3066962],[139.4834224,35.3066061],[139.4833125,35.3066058]]],"type":"Polygon"},"id":"sha256:6639e9bec776fce8da5a0eda6ed0bdd1b3345fd3b720b8b507e9050366b83cee","properties":{"A40_001":"神奈川県","A40_002":"14","A40_003":"5m以上 〜 10m未満"},"type":"Feature"},{"geometry":{"coordinates":[[[139.4838596,35.3072384],[139.4838592,35.3073285],[139.4838588,35.3074186],[139.4838584,35.3075088],[139.4839684,35.3075091],[139.483968,35.3075992],[139.484078,35.3075996],[139.4840784,35.3075094],[139.4840787,35.3074193],[139.4839688,35.307419],[139.4839692,35.3073288],[139.4839696,35.3072387],[139.4838596,35.3072384]]],"type":"Polygon"},"id":"sha256:761605ef2fd7518b973a2933d2a8ea0595681ff76af01ca17e2e472f2d29aa23","properties":{"A40_001":"神奈川県","A40_002":"14","A40_003":"5m以上 〜 10m未満"},"type":"Feature"},{"geometry":{"coordinates":[[[139.4805829,35.3020907],[139.480473,35.3020904],[139.4804726,35.3021806],[139.4805826,35.3021809],[139.4805829,35.3020907]]],"type":"Polygon"},"id":"sha256:78dc0726c5e9f8084d9f028d264da612ed9751346abd980e29422bc1b324d3a5","properties":{"A40_001":"神奈川県","A40_002":"14","A40_003":"2m以上 〜 3m未満"},"type":"Feature"},{"geometry":{"coordinates":[[[139.4802311,35.3071377],[139.4802315,35.3070475],[139.4802319,35.3069574],[139.480122,35.3069571],[139.4801216,35.3070472],[139.4801212,35.3071374],[139.4802311,35.3071377]]],"type":"Polygon"},"id":"sha256:7c3a5790e0d9757f4bc0b57b8ae3f29a734289f4685aff618aec7942ba3d5e37","properties":{"A40_001":"神奈川県","A40_002":"14","A40_003":"5m以上 〜 10m未満"},"type":"Feature"},{"geometry":{"coordinates":[[[139.4812439,35.3018222],[139.4812435,35.3019124],[139.4813534,35.3019127],[139.4814634,35.301913],[139.4815733,35.3019133],[139.4815737,35.3018232],[139.4814638,35.3018229],[139.4813538,35.3018226],[139.4812439,35.3018222]]],"type":"Polygon"},"id":"sha256:7c7f155f36452d040a68e722d7c64dbeb9a79f81443c2f28538ed170a3c44cfb","properties":{"A40_001":"神奈川県","A40_002":"14","A40_003":"4m以上 〜 5m未満"},"type":"Feature"},{"geometry":{"coordinates":[[[139.4830867,35.3079573],[139.4830863,35.3080474],[139.4831963,35.3080477],[139.4831967,35.3079576],[139.4830867,35.3079573]]],"type":"Polygon"},"id":"sha256:8ec5f99b735b52f6d90a3554d394577b5fadeabf329cf29743cd359d0b01454d","properties":{"A40_001":"神奈川県","A40_002":"14","A40_003":"5m以上 〜 10m未満"},"type":"Feature"},{"geometry":{"coordinates":[[[139.4832029,35.3065153],[139.4832025,35.3066055],[139.4833125,35.3066058],[139.4833129,35.3065156],[139.4832029,35.3065153]]],"type":"Polygon"},"id":"sha256:8fbba38e0de7b430f19041307520a133dcbf907ef4affa24186ceb6e5f33e0eb","properties":{"A40_001":"神奈川県","A40_002":"14","A40_003":"5m以上 〜 10m未満"},"type":"Feature"},{"geometry":{"coordinates":[[[139.4805837,35.3019105],[139.4804738,35.3019101],[139.4804734,35.3020003],[139.4805833,35.3020006],[139.4805837,35.3019105]]],"type":"Polygon"},"id":"sha256:9394f8da197e7db2c944148e6ce92ecd17843d123e45c8dba1a097a48d80b8f1","properties":{"A40_001":"神奈川県","A40_002":"14","A40_003":"4m以上 〜 5m未満"},"type":"Feature"},{"geometry":{"coordinates":[[[139.482648,35.3076856],[139.4825381,35.3076852],[139.4825377,35.3077754],[139.4826476,35.3077757],[139.482648,35.3076856]]],"type":"Polygon"},"id":"sha256:a0ddc695ead25f3f2417099ac71706c375f6706ac49b76764b9cc4fe030e8d51","properties":{"A40_001":"神奈川県","A40_002":"14","A40_003":"4m以上 〜 5m未満"},"type":"Feature"},{"geometry":{"coordinates":[[[139.4815698,35.3027246],[139.4814599,35.3027243],[139.4814595,35.3028144],[139.4815694,35.3028148],[139.4815691,35.3029049],[139.481679,35.3029052],[139.4816794,35.3028151],[139.4816798,35.3027249],[139.4815698,35.3027246]]],"type":"Polygon"},"id":"sha256:a8dba35414d3f106556891fd07c6cbb54f1ae6b248f28c7a6c7e3c6d4a41da8f","properties":{"A40_001":"神奈川県","A40_002":"14","A40_003":"4m以上 〜 5m未満"},"type":"Feature"},{"geometry":{"coordinates":[[[139.484078,35.3075996],[139.4840776,35.3076897],[139.4841875,35.30769],[139.4841879,35.3075999],[139.484078,35.3075996]]],"type":"Polygon"},"id":"sha256:ab31a225dc9af02fb382ac222041b83f048699a0be5977e50dd9567e4dcf80e7","properties":{"A40_001":"神奈川県","A40_002":"14","A40_003":"5m以上 〜 10m未満"},"type":"Feature"},{"geometry":{"coordinates":[[[139.4803407,35.3072281],[139.4803403,35.3073183],[139.4804503,35.3073186],[139.4804507,35.3072285],[139.4803407,35.3072281]]],"type":"Polygon"},"id":"sha256:b06d2b382de1dea1d1197b2c3a164906a793aa3484c06be63c107433f178774b","properties":{"A40_001":"神奈川県","A40_002":"14","A40_003":"5m以上 〜 10m未満"},"type":"Feature"},{"geometry":{"coordinates":[[[139.4802531,35.3020898],[139.4801431,35.3020895],[139.4801427,35.3021796],[139.4802527,35.3021799],[139.4802531,35.3020898]]],"type":"Polygon"},"id":"sha256:b177347413ef5361ea3afe8bedd27cf2ced666de92ecac30147c72903aeb090e","properties":{"A40_001":"神奈川県","A40_002":"14","A40_003":"5m以上 〜 10m未満"},"type":"Feature"},{"geometry":{"coordinates":[[[139.4803626,35.3021802],[139.480363,35.3020901],[139.4802531,35.3020898],[139.4802527,35.3021799],[139.4803626,35.3021802]]],"type":"Polygon"},"id":"sha256:bb7eb7f4f946ab98d90ca5961d03d9e0ed4e2ba8a552ef9ba6447158d0a640c3","properties":{"A40_001":"神奈川県","A40_002":"14","A40_003":"3m以上 〜 4m未満"},"type":"Feature"},{"geometry":{"coordinates":[[[139.4804734,35.3020003],[139.4803634,35.302],[139.480363,35.3020901],[139.480473,35.3020904],[139.4804734,35.3020003]]],"type":"Polygon"},"id":"sha256:bdf1d08ca089fc06a6a2063b227777a79c4ecbc3769d7387830f327a8a6bd8ed","properties":{"A40_001":"神奈川県","A40_002":"14","A40_003":"0.3m以上 〜 1m未満"},"type":"Feature"},{"geometry":{"coordinates":[[[139.4803622,35.3022704],[139.4803626,35.3021802],[139.4802527,35.3021799],[139.4802523,35.3022701],[139.4803622,35.3022704]]],"type":"Polygon"},"id":"sha256:cbe716df9df9960ef0f77fd18b942251c6a39ec5fe780e2cda92b3a8bc2160e8","properties":{"A40_001":"神奈川県","A40_002":"14","A40_003":"4m以上 〜 5m未満"},"type":"Feature"},{"geometry":{"coordinates":[[[139.480887,35.308041],[139.4807771,35.3080407],[139.4807767,35.3081308],[139.4808866,35.3081312],[139.480887,35.308041]]],"type":"Polygon"},"id":"sha256:d13959334781958939f5c055e5c5a822a116be0241dd37657715eaca83df6383","properties":{"A40_001":"神奈川県","A40_002":"14","A40_003":"4m以上 〜 5m未満"},"type":"Feature"},{"geometry":{"coordinates":[[[139.4829841,35.3062443],[139.4829838,35.3063344],[139.4829834,35.3064245],[139.4830933,35.3064249],[139.4830929,35.306515],[139.4832029,35.3065153],[139.4832033,35.3064252],[139.4832037,35.306335],[139.4830937,35.3063347],[139.4830941,35.3062446],[139.4829841,35.3062443]]],"type":"Polygon"},"id":"sha256:d87eb6d1810320d505c2844612caba2e7ccb7c646520117d948f5d59b20b525d","properties":{"A40_001":"神奈川県","A40_002":"14","A40_003":"5m以上 〜 10m未満"},"type":"Feature"},{"geometry":{"coordinates":[[[139.4831963,35.3080477],[139.4831959,35.3081379],[139.4833059,35.3081382],[139.4833063,35.308048],[139.4831963,35.3080477]]],"type":"Polygon"},"id":"sha256:d8b2be7270080541708ab8dbb2ec86417ad351b6447c68c9a22f2367be3b420f","properties":{"A40_001":"神奈川県","A40_002":"14","A40_003":"5m以上 〜 10m未満"},"type":"Feature"},{"geometry":{"coordinates":[[[139.4806941,35.3018206],[139.4805841,35.3018203],[139.4805837,35.3019105],[139.4806937,35.3019108],[139.4806941,35.3018206]]],"type":"Polygon"},"id":"sha256:d8da92c277cbefffd4d94c96c241ed9676aab479f10885949c23d1bc9f877e57","properties":{"A40_001":"神奈川県","A40_002":"14","A40_003":"2m以上 〜 3m未満"},"type":"Feature"},{"geometry":{"coordinates":[[[139.4805829,35.3020907],[139.4805826,35.3021809],[139.4804726,35.3021806],[139.4803626,35.3021802],[139.4803622,35.3022704],[139.4804722,35.3022707],[139.4805822,35.302271],[139.4806921,35.3022713],[139.4806925,35.3021812],[139.4806929,35.3020911],[139.4805829,35.3020907]]],"type":"Polygon"},"id":"sha256:e1273cd8082c601a1b7ded36deceb0a5b91655690244bd2755fb785c04bdcad3","properties":{"A40_001":"神奈川県","A40_002":"14","A40_003":"3m以上 〜 4m未満"},"type":"Feature"},{"geometry":{"coordinates":[[[139.4803622,35.3022704],[139.4803619,35.3023605],[139.4804718,35.3023608],[139.4805818,35.3023612],[139.4805822,35.302271],[139.4804722,35.3022707],[139.4803622,35.3022704]]],"type":"Polygon"},"id":"sha256:ef303025582137cb9e69d0d9a5c32712f1e431a51e55c2069d1832c5927e7ae2","properties":{"A40_001":"神奈川県","A40_002":"14","A40_003":"4m以上 〜 5m未満"},"type":"Feature"},{"geometry":{"coordinates":[[[139.4803634,35.302],[139.4802535,35.3019996],[139.4802531,35.3020898],[139.480363,35.3020901],[139.4803634,35.302]]],"type":"Polygon"},"id":"sha256:f42368b8bf272c0ed55688af2830f4743802162b0b6650a6a9bb9fb2f9d1b410","properties":{"A40_001":"神奈川県","A40_002":"14","A40_003":"2m以上 〜 3m未満"},"type":"Feature"},{"geometry":{"coordinates":[[[139.4828676,35.3077763],[139.4828672,35.3078665],[139.4829771,35.3078668],[139.4829775,35.3077767],[139.4828676,35.3077763]]],"type":"Polygon"},"id":"sha256:ffe5d2cf84f4bb043386374b7825fd0597d243b8b0b5eb8c8f567a09bf5469fd","properties":{"A40_001":"神奈川県","A40_002":"14","A40_003":"5m以上 〜 10m未満"},"type":"Feature"}],"metadata":{"connection_status":"NOT_CONNECTED","coverage_complete":false,"coverage_reason":"Intersection selection from a derivative does not prove complete official source coverage.","license_review_status":"HUMAN_PENDING","original_source_trust_bound":false,"original_source_trust_reason":"The original official ZIP is not retained in the task staging contract; an operator-provided SHA string cannot bind this derivative to that ZIP.","output_crs":"UNVERIFIED_NOT_RELABELLED","selection_bbox":[139.48,35.3018,139.4842,35.3082],"selection_method":"feature bbox intersects the fixed preview bbox","source_crs":"EPSG:6668","source_name":"A40-20_14_GML.zip operator-supplied derivative"},"type":"FeatureCollection"}
