{
  "features": [
    {
      "geometry": {
        "coordinates": [
          135.781246633134,
          35.0054222706826
        ],
        "type": "Point"
      },
      "properties": {
        "accessibility_status": "UNKNOWN",
        "address": "林下町",
        "aoi_group": "kiyomizu_gion",
        "category": "public_tourist_toilet",
        "coordinate_method": "SOURCE_PROVIDED_LONGITUDE_LATITUDE",
        "entrance_status": "UNKNOWN",
        "facility_record_id": "kyoto_public_toilets_00307:22",
        "limitations": "Official source row and source-provided coordinates only; current opening, entrance, accessibility, safety, and disaster usability are not inferred.",
        "name": "知恩院観光トイレ",
        "operation_status": "UNKNOWN",
        "phone": null,
        "safety_status": "UNKNOWN",
        "silent_geocoding": false,
        "source_id": "kyoto_public_toilets_00307",
        "source_version_or_valid_as_of": "2026-03-06"
      },
      "type": "Feature"
    },
    {
      "geometry": {
        "coordinates": [
          135.78270614,
          34.9947321
        ],
        "type": "Point"
      },
      "properties": {
        "accessibility_status": "UNKNOWN",
        "address": "清水1丁目",
        "aoi_group": "kiyomizu_gion",
        "category": "public_tourist_toilet",
        "coordinate_method": "SOURCE_PROVIDED_LONGITUDE_LATITUDE",
        "entrance_status": "UNKNOWN",
        "facility_record_id": "kyoto_public_toilets_00307:Ａ－１",
        "limitations": "Official source row and source-provided coordinates only; current opening, entrance, accessibility, safety, and disaster usability are not inferred.",
        "name": "清水寺境内公衆トイレ",
        "operation_status": "UNKNOWN",
        "phone": null,
        "safety_status": "UNKNOWN",
        "silent_geocoding": false,
        "source_id": "kyoto_public_toilets_00307",
        "source_version_or_valid_as_of": "2026-03-06"
      },
      "type": "Feature"
    },
    {
      "geometry": {
        "coordinates": [
          135.7833217,
          35.0032846
        ],
        "type": "Point"
      },
      "properties": {
        "accessibility_status": "UNKNOWN",
        "address": "円山町",
        "aoi_group": "kiyomizu_gion",
        "category": "public_tourist_toilet",
        "coordinate_method": "SOURCE_PROVIDED_LONGITUDE_LATITUDE",
        "entrance_status": "UNKNOWN",
        "facility_record_id": "kyoto_public_toilets_00307:Ａ－１０",
        "limitations": "Official source row and source-provided coordinates only; current opening, entrance, accessibility, safety, and disaster usability are not inferred.",
        "name": "円山公園弁天堂前公衆トイレ",
        "operation_status": "UNKNOWN",
        "phone": null,
        "safety_status": "UNKNOWN",
        "silent_geocoding": false,
        "source_id": "kyoto_public_toilets_00307",
        "source_version_or_valid_as_of": "2026-03-06"
      },
      "type": "Feature"
    },
    {
      "geometry": {
        "coordinates": [
          135.7775194,
          35.0065142
        ],
        "type": "Point"
      },
      "properties": {
        "accessibility_status": "UNKNOWN",
        "address": "石橋町",
        "aoi_group": "kiyomizu_gion",
        "category": "public_tourist_toilet",
        "coordinate_method": "SOURCE_PROVIDED_LONGITUDE_LATITUDE",
        "entrance_status": "UNKNOWN",
        "facility_record_id": "kyoto_public_toilets_00307:Ａ－１１",
        "limitations": "Official source row and source-provided coordinates only; current opening, entrance, accessibility, safety, and disaster usability are not inferred.",
        "name": "祇園白川公衆トイレ",
        "operation_status": "UNKNOWN",
        "phone": null,
        "safety_status": "UNKNOWN",
        "silent_geocoding": false,
        "source_id": "kyoto_public_toilets_00307",
        "source_version_or_valid_as_of": "2026-03-06"
      },
      "type": "Feature"
    },
    {
      "geometry": {
        "coordinates": [
          135.7722931,
          35.0041722
        ],
        "type": "Point"
      },
      "properties": {
        "accessibility_status": "UNKNOWN",
        "address": "川端町",
        "aoi_group": "kiyomizu_gion",
        "category": "public_tourist_toilet",
        "coordinate_method": "SOURCE_PROVIDED_LONGITUDE_LATITUDE",
        "entrance_status": "UNKNOWN",
        "facility_record_id": "kyoto_public_toilets_00307:Ａ－１２",
        "limitations": "Official source row and source-provided coordinates only; current opening, entrance, accessibility, safety, and disaster usability are not inferred.",
        "name": "四条大橋東詰公衆トイレ",
        "operation_status": "UNKNOWN",
        "phone": null,
        "safety_status": "UNKNOWN",
        "silent_geocoding": false,
        "source_id": "kyoto_public_toilets_00307",
        "source_version_or_valid_as_of": "2026-03-06"
      },
      "type": "Feature"
    },
    {
      "geometry": {
        "coordinates": [
          135.7725814,
          35.0010985
        ],
        "type": "Point"
      },
      "properties": {
        "accessibility_status": "UNKNOWN",
        "address": "小松町",
        "aoi_group": "kiyomizu_gion",
        "category": "public_tourist_toilet",
        "coordinate_method": "SOURCE_PROVIDED_LONGITUDE_LATITUDE",
        "entrance_status": "UNKNOWN",
        "facility_record_id": "kyoto_public_toilets_00307:Ａ－１３",
        "limitations": "Official source row and source-provided coordinates only; current opening, entrance, accessibility, safety, and disaster usability are not inferred.",
        "name": "大和大路団栗南公衆トイレ",
        "operation_status": "UNKNOWN",
        "phone": null,
        "safety_status": "UNKNOWN",
        "silent_geocoding": false,
        "source_id": "kyoto_public_toilets_00307",
        "source_version_or_valid_as_of": "2026-03-06"
      },
      "type": "Feature"
    },
    {
      "geometry": {
        "coordinates": [
          135.7802639,
          34.9964289
        ],
        "type": "Point"
      },
      "properties": {
        "accessibility_status": "UNKNOWN",
        "address": "清水2丁目",
        "aoi_group": "kiyomizu_gion",
        "category": "public_tourist_toilet",
        "coordinate_method": "SOURCE_PROVIDED_LONGITUDE_LATITUDE",
        "entrance_status": "UNKNOWN",
        "facility_record_id": "kyoto_public_toilets_00307:Ａ－２",
        "limitations": "Official source row and source-provided coordinates only; current opening, entrance, accessibility, safety, and disaster usability are not inferred.",
        "name": "清水坂観光駐車場東公衆トイレ\n（蛇口屋稼業因東司）",
        "operation_status": "UNKNOWN",
        "phone": null,
        "safety_status": "UNKNOWN",
        "silent_geocoding": false,
        "source_id": "kyoto_public_toilets_00307",
        "source_version_or_valid_as_of": "2026-03-06"
      },
      "type": "Feature"
    },
    {
      "geometry": {
        "coordinates": [
          135.7796803,
          34.9967518
        ],
        "type": "Point"
      },
      "properties": {
        "accessibility_status": "UNKNOWN",
        "address": "清水2丁目",
        "aoi_group": "kiyomizu_gion",
        "category": "public_tourist_toilet",
        "coordinate_method": "SOURCE_PROVIDED_LONGITUDE_LATITUDE",
        "entrance_status": "UNKNOWN",
        "facility_record_id": "kyoto_public_toilets_00307:Ａ－３",
        "limitations": "Official source row and source-provided coordinates only; current opening, entrance, accessibility, safety, and disaster usability are not inferred.",
        "name": "清水坂観光駐車場トイレ",
        "operation_status": "UNKNOWN",
        "phone": null,
        "safety_status": "UNKNOWN",
        "silent_geocoding": false,
        "source_id": "kyoto_public_toilets_00307",
        "source_version_or_valid_as_of": "2026-03-06"
      },
      "type": "Feature"
    },
    {
      "geometry": {
        "coordinates": [
          135.7799635,
          34.9995198
        ],
        "type": "Point"
      },
      "properties": {
        "accessibility_status": "UNKNOWN",
        "address": "下河原町",
        "aoi_group": "kiyomizu_gion",
        "category": "public_tourist_toilet",
        "coordinate_method": "SOURCE_PROVIDED_LONGITUDE_LATITUDE",
        "entrance_status": "UNKNOWN",
        "facility_record_id": "kyoto_public_toilets_00307:Ａ－４",
        "limitations": "Official source row and source-provided coordinates only; current opening, entrance, accessibility, safety, and disaster usability are not inferred.",
        "name": "高台寺公園公衆トイレ",
        "operation_status": "UNKNOWN",
        "phone": null,
        "safety_status": "UNKNOWN",
        "silent_geocoding": false,
        "source_id": "kyoto_public_toilets_00307",
        "source_version_or_valid_as_of": "2026-03-06"
      },
      "type": "Feature"
    },
    {
      "geometry": {
        "coordinates": [
          135.7675945,
          34.9960944
        ],
        "type": "Point"
      },
      "properties": {
        "accessibility_status": "UNKNOWN",
        "address": "下材木町",
        "aoi_group": "kiyomizu_gion",
        "category": "public_tourist_toilet",
        "coordinate_method": "SOURCE_PROVIDED_LONGITUDE_LATITUDE",
        "entrance_status": "UNKNOWN",
        "facility_record_id": "kyoto_public_toilets_00307:Ａ－５",
        "limitations": "Official source row and source-provided coordinates only; current opening, entrance, accessibility, safety, and disaster usability are not inferred.",
        "name": "五条大橋西詰公衆トイレ",
        "operation_status": "UNKNOWN",
        "phone": null,
        "safety_status": "UNKNOWN",
        "silent_geocoding": false,
        "source_id": "kyoto_public_toilets_00307",
        "source_version_or_valid_as_of": "2026-03-06"
      },
      "type": "Feature"
    },
    {
      "geometry": {
        "coordinates": [
          135.77785,
          35.0044051
        ],
        "type": "Point"
      },
      "properties": {
        "accessibility_status": "UNKNOWN",
        "address": "祇園町北側",
        "aoi_group": "kiyomizu_gion",
        "category": "public_tourist_toilet",
        "coordinate_method": "SOURCE_PROVIDED_LONGITUDE_LATITUDE",
        "entrance_status": "UNKNOWN",
        "facility_record_id": "kyoto_public_toilets_00307:Ａ－６",
        "limitations": "Official source row and source-provided coordinates only; current opening, entrance, accessibility, safety, and disaster usability are not inferred.",
        "name": "祇園石段下公衆トイレ",
        "operation_status": "UNKNOWN",
        "phone": null,
        "safety_status": "UNKNOWN",
        "silent_geocoding": false,
        "source_id": "kyoto_public_toilets_00307",
        "source_version_or_valid_as_of": "2026-03-06"
      },
      "type": "Feature"
    },
    {
      "geometry": {
        "coordinates": [
          135.7794177,
          35.0041436
        ],
        "type": "Point"
      },
      "properties": {
        "accessibility_status": "UNKNOWN",
        "address": "祇園町北側",
        "aoi_group": "kiyomizu_gion",
        "category": "public_tourist_toilet",
        "coordinate_method": "SOURCE_PROVIDED_LONGITUDE_LATITUDE",
        "entrance_status": "UNKNOWN",
        "facility_record_id": "kyoto_public_toilets_00307:Ａ－７",
        "limitations": "Official source row and source-provided coordinates only; current opening, entrance, accessibility, safety, and disaster usability are not inferred.",
        "name": "円山公園一休庵前公衆トイレ",
        "operation_status": "UNKNOWN",
        "phone": null,
        "safety_status": "UNKNOWN",
        "silent_geocoding": false,
        "source_id": "kyoto_public_toilets_00307",
        "source_version_or_valid_as_of": "2026-03-06"
      },
      "type": "Feature"
    },
    {
      "geometry": {
        "coordinates": [
          135.7820463,
          35.003713
        ],
        "type": "Point"
      },
      "properties": {
        "accessibility_status": "UNKNOWN",
        "address": "円山町",
        "aoi_group": "kiyomizu_gion",
        "category": "public_tourist_toilet",
        "coordinate_method": "SOURCE_PROVIDED_LONGITUDE_LATITUDE",
        "entrance_status": "UNKNOWN",
        "facility_record_id": "kyoto_public_toilets_00307:Ａ－８",
        "limitations": "Official source row and source-provided coordinates only; current opening, entrance, accessibility, safety, and disaster usability are not inferred.",
        "name": "円山公園藤ノ棚東公衆トイレ",
        "operation_status": "UNKNOWN",
        "phone": null,
        "safety_status": "UNKNOWN",
        "silent_geocoding": false,
        "source_id": "kyoto_public_toilets_00307",
        "source_version_or_valid_as_of": "2026-03-06"
      },
      "type": "Feature"
    },
    {
      "geometry": {
        "coordinates": [
          135.78144684,
          35.0030769
        ],
        "type": "Point"
      },
      "properties": {
        "accessibility_status": "UNKNOWN",
        "address": "円山町",
        "aoi_group": "kiyomizu_gion",
        "category": "public_tourist_toilet",
        "coordinate_method": "SOURCE_PROVIDED_LONGITUDE_LATITUDE",
        "entrance_status": "UNKNOWN",
        "facility_record_id": "kyoto_public_toilets_00307:Ａ－９",
        "limitations": "Official source row and source-provided coordinates only; current opening, entrance, accessibility, safety, and disaster usability are not inferred.",
        "name": "円山公園銅像前公衆トイレ",
        "operation_status": "UNKNOWN",
        "phone": null,
        "safety_status": "UNKNOWN",
        "silent_geocoding": false,
        "source_id": "kyoto_public_toilets_00307",
        "source_version_or_valid_as_of": "2026-03-06"
      },
      "type": "Feature"
    },
    {
      "geometry": {
        "coordinates": [
          135.7706107,
          35.006445
        ],
        "type": "Point"
      },
      "properties": {
        "accessibility_status": "UNKNOWN",
        "address": "下樵木町",
        "aoi_group": "kiyomizu_gion",
        "category": "public_tourist_toilet",
        "coordinate_method": "SOURCE_PROVIDED_LONGITUDE_LATITUDE",
        "entrance_status": "UNKNOWN",
        "facility_record_id": "kyoto_public_toilets_00307:Ｄ－３",
        "limitations": "Official source row and source-provided coordinates only; current opening, entrance, accessibility, safety, and disaster usability are not inferred.",
        "name": "木屋町公衆トイレ",
        "operation_status": "UNKNOWN",
        "phone": null,
        "safety_status": "UNKNOWN",
        "silent_geocoding": false,
        "source_id": "kyoto_public_toilets_00307",
        "source_version_or_valid_as_of": "2026-03-06"
      },
      "type": "Feature"
    },
    {
      "geometry": {
        "coordinates": [
          135.7674041,
          35.0058452
        ],
        "type": "Point"
      },
      "properties": {
        "accessibility_status": "UNKNOWN",
        "address": "東側町",
        "aoi_group": "kiyomizu_gion",
        "category": "public_tourist_toilet",
        "coordinate_method": "SOURCE_PROVIDED_LONGITUDE_LATITUDE",
        "entrance_status": "UNKNOWN",
        "facility_record_id": "kyoto_public_toilets_00307:Ｄ－４",
        "limitations": "Official source row and source-provided coordinates only; current opening, entrance, accessibility, safety, and disaster usability are not inferred.",
        "name": "蛸薬師新京極公衆トイレ",
        "operation_status": "UNKNOWN",
        "phone": null,
        "safety_status": "UNKNOWN",
        "silent_geocoding": false,
        "source_id": "kyoto_public_toilets_00307",
        "source_version_or_valid_as_of": "2026-03-06"
      },
      "type": "Feature"
    },
    {
      "geometry": {
        "coordinates": [
          135.7677776,
          35.0071985
        ],
        "type": "Point"
      },
      "properties": {
        "accessibility_status": "UNKNOWN",
        "address": "桜之町",
        "aoi_group": "kiyomizu_gion",
        "category": "public_tourist_toilet",
        "coordinate_method": "SOURCE_PROVIDED_LONGITUDE_LATITUDE",
        "entrance_status": "UNKNOWN",
        "facility_record_id": "kyoto_public_toilets_00307:Ｄ－５",
        "limitations": "Official source row and source-provided coordinates only; current opening, entrance, accessibility, safety, and disaster usability are not inferred.",
        "name": "六角新京極東公衆トイレロッカクシンキョウゴクヒガシ",
        "operation_status": "UNKNOWN",
        "phone": null,
        "safety_status": "UNKNOWN",
        "silent_geocoding": false,
        "source_id": "kyoto_public_toilets_00307",
        "source_version_or_valid_as_of": "2026-03-06"
      },
      "type": "Feature"
    },
    {
      "geometry": {
        "coordinates": [
          135.7678453,
          35.0050751
        ],
        "type": "Point"
      },
      "properties": {
        "accessibility_status": "UNKNOWN",
        "address": "裏寺町",
        "aoi_group": "kiyomizu_gion",
        "category": "public_tourist_toilet",
        "coordinate_method": "SOURCE_PROVIDED_LONGITUDE_LATITUDE",
        "entrance_status": "UNKNOWN",
        "facility_record_id": "kyoto_public_toilets_00307:Ｄ－６",
        "limitations": "Official source row and source-provided coordinates only; current opening, entrance, accessibility, safety, and disaster usability are not inferred.",
        "name": "第二京極公衆トイレ",
        "operation_status": "UNKNOWN",
        "phone": null,
        "safety_status": "UNKNOWN",
        "silent_geocoding": false,
        "source_id": "kyoto_public_toilets_00307",
        "source_version_or_valid_as_of": "2026-03-06"
      },
      "type": "Feature"
    }
  ],
  "historical_feature_count": 58,
  "name": "Kyoto official facility source-coordinate points — kiyomizu_gion",
  "public_exclusion_reason": "PROVIDER_PUBLIC_REDISTRIBUTION_BINDING_NOT_FOUND_PUBLIC_ROWS_EXCLUDED",
  "public_feature_count": 18,
  "type": "FeatureCollection"
}
