{"features":[{"geometry":{"coordinates":[[[135.6835889163599,35.00049483958652],[135.68380602525173,35.00051911390831],[135.68391457974687,35.00053125092381],[135.68392745637647,35.00045328936951],[135.6838189019822,35.00044115236589],[135.6835978726808,35.000416507261804],[135.6835889163599,35.00049483958652]]],"type":"Polygon"},"properties":{"KINDC":2,"NATURALC":1,"NEWCITYC":26111,"_ablepath_display_only":true,"_ablepath_geometry_transform":"NONE_WHOLE_SOURCE_FEATURE_INTERSECTION_SELECTION","scenario_id":"KYOTO_LANDSLIDE_2026_g_d_rzone","source_class":"NATURALC=1;KINDC=2","source_feature_id":"g_d_rzone:3759","source_id":"kyoto_city_landslide_gis_20260830","source_layer_id":"g_d_rzone"},"type":"Feature"},{"geometry":{"coordinates":[[[135.6764206385002,35.00978602506336],[135.67637167252127,35.00981957333335],[135.67653626639068,35.00994409902623],[135.67668219721295,35.010078067233096],[135.6767562512414,35.010206768610836],[135.67676750762024,35.01038683058945],[135.67682083315415,35.01056534588109],[135.67677906217438,35.01074734903734],[135.67683515804742,35.01074529882268],[135.67687081413357,35.01056352276426],[135.67682940018946,35.01038457044627],[135.6768362467845,35.01020384451289],[135.6767673331822,35.01001339735615],[135.67659240455623,35.00990054548525],[135.67645116945215,35.00976510226376],[135.6764206385002,35.00978602506336]]],"type":"Polygon"},"properties":{"KINDC":2,"NATURALC":1,"NEWCITYC":26111,"_ablepath_display_only":true,"_ablepath_geometry_transform":"NONE_WHOLE_SOURCE_FEATURE_INTERSECTION_SELECTION","scenario_id":"KYOTO_LANDSLIDE_2026_g_d_rzone","source_class":"NATURALC=1;KINDC=2","source_feature_id":"g_d_rzone:3760","source_id":"kyoto_city_landslide_gis_20260830","source_layer_id":"g_d_rzone"},"type":"Feature"},{"geometry":{"coordinates":[[[135.68723568974178,35.00058494441384],[135.68724673138811,35.00056516758964],[135.68711012795023,35.00048461188861],[135.68690447452377,35.0003633389059],[135.68669883266077,35.00024206560387],[135.68649319137154,35.00012080096886],[135.68628753976952,34.999999526943334],[135.686081899731,34.99987825259861],[135.6858762493109,34.999756986892514],[135.68567061048861,34.999635711852626],[135.6852790050251,34.999297268379266],[135.68503389229227,34.99924569967673],[135.68478877987056,34.999194130480454],[135.68454366776007,34.99914256079046],[135.68418242941962,34.999028523251454],[135.68394964363227,34.99901947967988],[135.68369174920014,34.99901879897772],[135.68353124293824,34.999019110851556],[135.68347776483714,34.99901772740104],[135.68336838921115,34.99922782700806],[135.68341949477573,34.99925645572729],[135.68357608572342,34.999331370398124],[135.6837641649573,34.99938569621387],[135.68398243536072,34.999423405130116],[135.68412525872165,34.999494848655544],[135.68426574978034,34.99963450010257],[135.6843340312812,34.999834957027446],[135.68440230212175,35.00003542289517],[135.6844641174306,35.000085452842704],[135.68444610995826,35.00029009355771],[135.68442128931113,35.000497276722975],[135.68439647952474,35.00070445088932],[135.68437165861926,35.00091163402894],[135.68434683758454,35.0011188171558],[135.68432201642062,35.00132600026976],[135.6842972170731,35.00153317441337],[135.68427238469533,35.001740357473246],[135.68424756314386,35.0019475405488],[135.68422276340883,35.002154714653976],[135.68419794159897,35.0023618977039],[135.6841792319154,35.00251802845189],[135.68421833338553,35.00251217146768],[135.684290324978,35.00250031510177],[135.68436205759738,35.002487421330926],[135.68442512190737,35.002475136011384],[135.6858438016452,35.001946318267585],[135.68589063173863,35.00191900776062],[135.68594979731412,35.00188322829911],[135.68600817727955,35.00184659939584],[135.68606578252067,35.00180913910941],[135.68612259109148,35.00177085639888],[135.68617857005603,35.00173176920957],[135.68623370845833,35.00169187751427],[135.68628799527377,35.00165119931505],[135.68634141947769,35.001609752613874],[135.6863939481691,35.001567546341576],[135.68644557035805,35.001524589485605],[135.68649627505474,35.001480891033424],[135.68654605120068,35.0014364780016],[135.68659487685073,35.001391359349384],[135.68664273006004,35.00134554403589],[135.68668961079453,35.00129904107687],[135.6867354970408,35.0012518774607],[135.68678037777534,35.00120407118942],[135.68682423112233,35.00115561319302],[135.68686705694518,35.00110653953099],[135.68690883329958,35.00105685916249],[135.68694954919684,35.00100658107493],[135.68698919357956,35.000955732284936],[135.6870277554592,35.00090432177994],[135.68706521289198,35.00085235851901],[135.68710156577626,35.00079986954704],[135.6871368030894,35.00074687286594],[135.68717090292228,35.00069336842021],[135.6872038760945,35.00063939229741],[135.68723568974178,35.00058494441384]]],"type":"Polygon"},"properties":{"KINDC":1,"NATURALC":1,"NEWCITYC":26111,"_ablepath_display_only":true,"_ablepath_geometry_transform":"NONE_WHOLE_SOURCE_FEATURE_INTERSECTION_SELECTION","scenario_id":"KYOTO_LANDSLIDE_2026_g_d_yzone","source_class":"NATURALC=1;KINDC=1","source_feature_id":"g_d_yzone:5886","source_id":"kyoto_city_landslide_gis_20260830","source_layer_id":"g_d_yzone"},"type":"Feature"},{"geometry":{"coordinates":[[[135.6865251595826,34.99976448776599],[135.6865155715342,34.99973919483083],[135.68634564906782,34.99979801848757],[135.68611245223275,34.99987876430574],[135.68587926593221,34.99995950068624],[135.6856460572314,35.000040245573175],[135.68541285903058,35.000120990037026],[135.685179660409,35.00020172503473],[135.6850280667827,35.00025421196954],[135.68494646129764,35.00028246859557],[135.6847132508103,35.00036320266189],[135.68448005078844,35.0004439453197],[135.68426749354114,35.000389809364265],[135.68405882454528,35.00031033385272],[135.68386345440305,35.00017140468644],[135.68363846241715,35.00006073117881],[135.6835795554962,35.00057580314392],[135.6837899291648,35.000616601891196],[135.68399248911427,35.00074358739384],[135.68419405725516,35.000869398068005],[135.68439563693497,35.00099521745122],[135.68459721726762,35.00112102748579],[135.68479879818398,35.00124684620087],[135.68486933633562,35.00129087677294],[135.68500036879772,35.00137265553887],[135.68520195095056,35.00149847358583],[135.6854035337562,35.00162428228414],[135.6856051062246,35.001750090619986],[135.68580669023228,35.001875907664754],[135.68600827489266,35.00200171536079],[135.6860347135175,35.00201821751706],[135.68606488116413,35.00198488710967],[135.68609610988008,35.00194910744352],[135.68612657337013,35.001912884070855],[135.6861562606449,35.00187622597851],[135.6861851716704,35.00183914218158],[135.68621328446747,35.00180165065328],[135.68624059896797,35.001763769423306],[135.68626711517257,35.001725498492206],[135.68629280018118,35.00168684679012],[135.68631767583673,35.001647832403435],[135.68634170920487,35.0016084732769],[135.68636491124184,35.00156876943933],[135.6863872709245,35.00152873889213],[135.68640876627393,35.00148839960826],[135.6864294082467,35.001447751616546],[135.68644918581958,35.00140681291832],[135.6864680989249,35.00136560154318],[135.6864861256529,35.001324117434976],[135.68650327685694,35.00128238766617],[135.6865195306274,35.00124041218057],[135.6865348978179,35.001198218050604],[135.68654936747407,35.001155805248324],[135.6865629395285,35.00111319180323],[135.6865755920374,35.00107038667374],[135.68658734684405,35.0010274079458],[135.68659818200462,35.000984264577774],[135.68660810840723,35.00094097462741],[135.68661710410808,35.00089754705293],[135.6866251909506,35.00085399994028],[135.68663234699105,35.00081034224775],[135.68663857216225,35.000766592004695],[135.6866438664656,35.000722749211214],[135.68664824072044,35.000678849954205],[135.6866516730519,35.000634885162526],[135.68665417431384,35.000590881908366],[135.68665574447326,35.000546849206444],[135.68665638349734,35.00050279607134],[135.6866560803635,35.000458740503994],[135.68665484595988,35.00041470056196],[135.68665268025356,35.00037068525976],[135.6866495832117,35.00032670361197],[135.68664554377742,35.00028278263403],[135.68664058389706,35.00023891336784],[135.6866346924795,35.00019513184339],[135.6866278695261,35.00015143806058],[135.6866201149696,35.00010785004842],[135.68661145068762,35.000064376877994],[135.6866018547023,35.00002103652169],[135.68659134889117,34.99997783805045],[135.68657992223177,34.999934799464995],[135.6865675966014,34.99989192983624],[135.68655435002228,34.999849247136574],[135.68654020437182,34.999806760436826],[135.6865251595826,34.99976448776599]]],"type":"Polygon"},"properties":{"KINDC":1,"NATURALC":1,"NEWCITYC":26111,"_ablepath_display_only":true,"_ablepath_geometry_transform":"NONE_WHOLE_SOURCE_FEATURE_INTERSECTION_SELECTION","scenario_id":"KYOTO_LANDSLIDE_2026_g_d_yzone","source_class":"NATURALC=1;KINDC=1","source_feature_id":"g_d_yzone:5887","source_id":"kyoto_city_landslide_gis_20260830","source_layer_id":"g_d_yzone"},"type":"Feature"},{"geometry":{"coordinates":[[[135.67656471431667,35.01165754819925],[135.67645472314993,35.01183149959595],[135.6765744098078,35.0117859339096],[135.67665511404107,35.011753669076285],[135.67667687626616,35.01174486562816],[135.67669786492914,35.011726594712954],[135.67679347821928,35.011678431562544],[135.67681031882032,35.01167847640483],[135.6768383454246,35.011664848729964],[135.67685665365474,35.011637186379474],[135.67686810509375,35.011625669074505],[135.67691998718195,35.011603090216795],[135.67693056998746,35.01160348798679],[135.67693907579223,35.01160544878023],[135.67695475367827,35.01160302950294],[135.67696616845078,35.01160083325926],[135.67700832886288,35.011584556788094],[135.677012536952,35.011573245560946],[135.67702380398,35.011564035505764],[135.6771122252357,35.01152523723547],[135.6771865431499,35.01148409363675],[135.67722916848115,35.011463797782],[135.67730905167696,35.01143399133213],[135.67726664468228,35.0113791865808],[135.67718496943937,35.01127390340741],[135.67704885187362,35.011098413318365],[135.6769433964455,35.010921805734995],[135.67688749521113,35.010743382811135],[135.67692708522094,35.01056146395846],[135.6769625547583,35.010379687370275],[135.67689905974612,35.010201541710806],[135.67684633692227,35.009953371678016],[135.6766304637108,35.009871024672535],[135.67649467562717,35.00973518133732],[135.67632424503665,35.009851953778565],[135.6764878653742,35.009981633332586],[135.67662702957432,35.010119991744226],[135.6767208449586,35.010208071590185],[135.67673530109175,35.01038801588824],[135.67679694393124,35.01056622881282],[135.67675853716497,35.010748096685134],[135.67664188722105,35.01093284815352],[135.67667070979607,35.011112262785495],[135.67668065110837,35.01129236631543],[135.6766172576808,35.011402960683434],[135.67657060820576,35.011476864855304],[135.67656471431667,35.01165754819925]]],"type":"Polygon"},"properties":{"KINDC":1,"NATURALC":1,"NEWCITYC":26111,"_ablepath_display_only":true,"_ablepath_geometry_transform":"NONE_WHOLE_SOURCE_FEATURE_INTERSECTION_SELECTION","scenario_id":"KYOTO_LANDSLIDE_2026_g_d_yzone","source_class":"NATURALC=1;KINDC=1","source_feature_id":"g_d_yzone:5888","source_id":"kyoto_city_landslide_gis_20260830","source_layer_id":"g_d_yzone"},"type":"Feature"},{"geometry":{"coordinates":[[[135.67951430591972,35.004445888083694],[135.67958972688393,35.0044795586939],[135.67976848803912,35.00456012584917],[135.67988989577245,35.00464893417727],[135.68002545056996,35.00475113943194],[135.68014533968983,35.00485306887513],[135.68032375053323,35.00506347272938],[135.6804997985216,35.00526189860242],[135.68061243582676,35.00536952379887],[135.68069626923287,35.00542937645501],[135.68078017689126,35.00547014517119],[135.68088870391506,35.00550502886436],[135.68104026942555,35.00555611676051],[135.68115099043612,35.00558187411368],[135.6811524695649,35.005581859969524],[135.6812707219163,35.005581052705395],[135.6812670231659,35.005438674154234],[135.68140450720725,35.00536336585113],[135.68154632504712,35.005204412526595],[135.68165137360626,35.005034220460786],[135.68175763731986,35.004858505484435],[135.68186964975177,35.00469481303035],[135.68186669809248,35.00449220033001],[135.68199010585676,35.00440729889177],[135.68236649141693,35.00430396645007],[135.6823301781182,35.004021910195654],[135.68219182103797,35.003870479994596],[135.68224958781005,35.003735383934576],[135.68242273649187,35.00365539903003],[135.6825923858822,35.00348001134896],[135.68265840629982,35.00326421017293],[135.682699214393,35.00308317579179],[135.68272132686099,35.002954503901464],[135.68296733663857,35.00287825138932],[135.68303862977268,35.00265844320216],[135.6831476155299,35.00249405647538],[135.6832089209018,35.002284417711024],[135.6831661895545,35.00208089882871],[135.68322053098248,35.00196397593996],[135.68343364612062,35.00183716338995],[135.6836210452577,35.00166832909223],[135.6837313652821,35.00147827145784],[135.6838242357065,35.00130165424031],[135.68389356403054,35.0011217483868],[135.6839688700571,35.00099693778983],[135.6839566561677,35.00077716396879],[135.68396511620276,35.00062267424454],[135.68385569867115,35.00061556522234],[135.68385560007314,35.000615564965564],[135.68379145742477,35.00062372747543],[135.68373911423788,35.00063746472527],[135.68366818594436,35.000658103848835],[135.68356176925403,35.00069392130956],[135.68345701824413,35.00073528705284],[135.68315120549755,35.00085803553446],[135.68301271689086,35.00089792456761],[135.68282673568808,35.00095212187896],[135.6827661847465,35.00096630602608],[135.68276527647626,35.0009773917176],[135.6827640748023,35.00099353388179],[135.68275549658037,35.00100490602862],[135.68275367343458,35.00102311093179],[135.68275400302218,35.00105125564582],[135.682638760691,35.00124740247518],[135.68255084790835,35.00133679662495],[135.68110878348116,35.001468994522384],[135.6811446644315,35.00194021426609],[135.68114612364008,35.00194814200713],[135.6811456631263,35.001959535359504],[135.68114321437514,35.00196946311047],[135.68114417228844,35.0019767044187],[135.68113904090487,35.001986246506426],[135.68094056800172,35.00227996432783],[135.6807932340427,35.002449783250846],[135.68069574817585,35.00255468315767],[135.6806551368343,35.00259096860772],[135.68052552401767,35.00264909680603],[135.68186564459765,35.00394075144361],[135.68185566033821,35.004037867493224],[135.68172259135827,35.00409975603088],[135.67966476905477,35.00417756660645],[135.679650787109,35.00418656241926],[135.67965046055585,35.00419444940362],[135.67964084959365,35.004200743331225],[135.67962709901732,35.00423188882377],[135.67961397309645,35.004271419616764],[135.67960967959345,35.004287968254054],[135.67959254816887,35.00430951319807],[135.67951430591972,35.004445888083694]]],"type":"Polygon"},"properties":{"KINDC":2,"NATURALC":2,"NEWCITYC":26111,"_ablepath_display_only":true,"_ablepath_geometry_transform":"NONE_WHOLE_SOURCE_FEATURE_INTERSECTION_SELECTION","scenario_id":"KYOTO_LANDSLIDE_2026_g_k_rzone","source_class":"NATURALC=2;KINDC=2","source_feature_id":"g_k_rzone:8307","source_id":"kyoto_city_landslide_gis_20260830","source_layer_id":"g_k_rzone"},"type":"Feature"},{"geometry":{"coordinates":[[[135.68462618009215,34.99918606371795],[135.68477620999752,34.99949517947528],[135.68485229787697,34.99973432038999],[135.684663956685,34.999793571651075],[135.6846870496333,34.999853777641974],[135.68471122200694,34.999959605266014],[135.684764403347,35.00004281824433],[135.68501786118796,34.999927042424574],[135.6853185602509,34.99979629794878],[135.68538553205937,34.999569697998744],[135.6852640449942,34.999549208212066],[135.6852577931804,34.99954682113983],[135.68507834742758,34.99947479715243],[135.68500310553685,34.999443600420804],[135.68492498985148,34.99940761839813],[135.68485846297102,34.9993692865317],[135.68478328531845,34.999321385609775],[135.68470461862856,34.999254887288224],[135.684644603169,34.999204149972634],[135.68462618009215,34.99918606371795]]],"type":"Polygon"},"properties":{"KINDC":2,"NATURALC":2,"NEWCITYC":26111,"_ablepath_display_only":true,"_ablepath_geometry_transform":"NONE_WHOLE_SOURCE_FEATURE_INTERSECTION_SELECTION","scenario_id":"KYOTO_LANDSLIDE_2026_g_k_rzone","source_class":"NATURALC=2;KINDC=2","source_feature_id":"g_k_rzone:8309","source_id":"kyoto_city_landslide_gis_20260830","source_layer_id":"g_k_rzone"},"type":"Feature"},{"geometry":{"coordinates":[[[135.68404095943418,35.000001714563574],[135.68409540206076,35.000080112764216],[135.68416953195137,35.00018408274464],[135.68419776580524,35.00022922963962],[135.68422968798487,35.00026677772471],[135.68427091308902,35.000315275799466],[135.68436378536387,35.000417112848396],[135.68436387266016,35.000417203222284],[135.68443828887345,35.00048100432818],[135.68462906301386,35.000324905936004],[135.68479820958729,35.00012905039432],[135.68470657738064,35.000078014665604],[135.68470597646646,35.000077589414495],[135.68463864059592,35.0000301324642],[135.68456002107007,34.99998260108353],[135.68438066836072,34.99988911233602],[135.6842447057132,34.999819589057836],[135.68419327138335,34.9997936732531],[135.68405445699665,34.999933165939865],[135.68404095943418,35.000001714563574]]],"type":"Polygon"},"properties":{"KINDC":2,"NATURALC":2,"NEWCITYC":26111,"_ablepath_display_only":true,"_ablepath_geometry_transform":"NONE_WHOLE_SOURCE_FEATURE_INTERSECTION_SELECTION","scenario_id":"KYOTO_LANDSLIDE_2026_g_k_rzone","source_class":"NATURALC=2;KINDC=2","source_feature_id":"g_k_rzone:8310","source_id":"kyoto_city_landslide_gis_20260830","source_layer_id":"g_k_rzone"},"type":"Feature"},{"geometry":{"coordinates":[[[135.6767318332829,35.009286594018725],[135.67674954492875,35.00942437637348],[135.67677483148236,35.00957232941536],[135.67679191144074,35.0096534708895],[135.67682595732336,35.00984198621987],[135.67684386597625,35.00993253219264],[135.6768439197309,35.00993279376125],[135.67687546946976,35.010023349000626],[135.67710837606805,35.00996754596293],[135.67716686956268,35.00992122190211],[135.6772493442677,35.009906314610795],[135.67741009000068,35.00980018850153],[135.677383971456,35.009738251387624],[135.6774375403316,35.00975733358261],[135.67771453170556,35.00971363603548],[135.67784210311342,35.00957870952756],[135.677901019537,35.00946345102663],[135.6782132394573,35.00953057304305],[135.6784282415534,35.00937655020359],[135.67842652709913,35.00937508528445],[135.67834638427618,35.009306694962554],[135.67834265143193,35.0093058376914],[135.67828096648935,35.00929166540983],[135.67814786899248,35.00922930062621],[135.67800908469542,35.00913352124601],[135.6777713722822,35.008973898632036],[135.67775872103851,35.008992543450276],[135.67765621582467,35.00905009139499],[135.6770455091347,35.00895220937023],[135.67703700181855,35.00895906493078],[135.67701518189716,35.008966020288064],[135.67693127033482,35.00901220451742],[135.6769102422431,35.00902676133285],[135.6767812329559,35.00905632855763],[135.67676762355572,35.00905667093362],[135.67676068492995,35.00906024931088],[135.6767545556301,35.00905862837658],[135.6767318332829,35.009286594018725]]],"type":"Polygon"},"properties":{"KINDC":2,"NATURALC":2,"NEWCITYC":26111,"_ablepath_display_only":true,"_ablepath_geometry_transform":"NONE_WHOLE_SOURCE_FEATURE_INTERSECTION_SELECTION","scenario_id":"KYOTO_LANDSLIDE_2026_g_k_rzone","source_class":"NATURALC=2;KINDC=2","source_feature_id":"g_k_rzone:8311","source_id":"kyoto_city_landslide_gis_20260830","source_layer_id":"g_k_rzone"},"type":"Feature"},{"geometry":{"coordinates":[[[135.67548403385848,35.010861462921085],[135.67554772796117,35.0109469209896],[135.6756114536555,35.0110632633675],[135.6756879473436,35.01119547860052],[135.67579966058864,35.01134890923028],[135.67601045516543,35.01160293753844],[135.67609716523302,35.011728734286514],[135.6760974052521,35.0117289963524],[135.6761728057255,35.01181089748466],[135.6764096743342,35.011671378142395],[135.67656525459023,35.01154813859635],[135.67679300535093,35.0114365486903],[135.67688133387563,35.01119565045471],[135.6768260433685,35.01100958469579],[135.67687974169772,35.01085662249352],[135.6767538060513,35.01083386769182],[135.676753543942,35.01083365064166],[135.67655070822508,35.01065638669291],[135.67641031664144,35.010554056571436],[135.67591997476364,35.010477484874116],[135.67586467660928,35.010477337216926],[135.67572612331514,35.010678526162465],[135.67567878881763,35.01070936508856],[135.67564044024945,35.01071764625983],[135.67551970798462,35.01077854219514],[135.67549531600235,35.01083179876061],[135.67548403385848,35.010861462921085]]],"type":"Polygon"},"properties":{"KINDC":2,"NATURALC":2,"NEWCITYC":26111,"_ablepath_display_only":true,"_ablepath_geometry_transform":"NONE_WHOLE_SOURCE_FEATURE_INTERSECTION_SELECTION","scenario_id":"KYOTO_LANDSLIDE_2026_g_k_rzone","source_class":"NATURALC=2;KINDC=2","source_feature_id":"g_k_rzone:8313","source_id":"kyoto_city_landslide_gis_20260830","source_layer_id":"g_k_rzone"},"type":"Feature"},{"geometry":{"coordinates":[[[135.67746361817288,35.01091262402574],[135.67748174932797,35.0109411405338],[135.67748229535837,35.01094160173289],[135.67752522824014,35.0109768549892],[135.67770553633724,35.01086165763624],[135.67782287939244,35.01070069669338],[135.6779757117317,35.01055910315863],[135.67792987508577,35.0105322981162],[135.67790294207882,35.01051306145735],[135.67775554926573,35.01065058569669],[135.6775986585674,35.01078756167413],[135.67746361817288,35.01091262402574]]],"type":"Polygon"},"properties":{"KINDC":2,"NATURALC":2,"NEWCITYC":26111,"_ablepath_display_only":true,"_ablepath_geometry_transform":"NONE_WHOLE_SOURCE_FEATURE_INTERSECTION_SELECTION","scenario_id":"KYOTO_LANDSLIDE_2026_g_k_rzone","source_class":"NATURALC=2;KINDC=2","source_feature_id":"g_k_rzone:8314","source_id":"kyoto_city_landslide_gis_20260830","source_layer_id":"g_k_rzone"},"type":"Feature"},{"geometry":{"coordinates":[[[135.67786890134877,35.00767029298583],[135.6780242350621,35.007780837406415],[135.6780470091039,35.00780710347519],[135.67806722653071,35.00783433634395],[135.67830678968923,35.00809704611683],[135.6783794042512,35.00815703288044],[135.67842843694527,35.008181565514576],[135.67853925500265,35.00822241606959],[135.67861669200408,35.0082400464896],[135.6786759795834,35.00824508940362],[135.67870647655167,35.00824377285649],[135.67877501488346,35.00822269765032],[135.67884133728705,35.0082023106723],[135.67886248960707,35.00820909158352],[135.6788862036343,35.00820800044191],[135.67890645052512,35.0082053586147],[135.67891584380752,35.00820724048542],[135.6789161612948,35.00820730442798],[135.67902990291614,35.0082206404658],[135.67908497916193,35.007985457989804],[135.67903561048345,35.00773837041715],[135.67903276503833,35.00760571193603],[135.67908491213055,35.00742750345927],[135.67937683538037,35.007404449104136],[135.6795899374635,35.00726646523751],[135.6797459907872,35.00699597700172],[135.68012641053488,35.00701404486497],[135.68041229751321,35.00692557963576],[135.68059623558923,35.006749781754415],[135.6808598142106,35.006554117311495],[135.68087648685253,35.00643068709653],[135.6809174670422,35.00626601551806],[135.68096128062325,35.00609957547608],[135.68099899711282,35.00602763830062],[135.6810377043821,35.005960111893955],[135.6811470101769,35.005814244068176],[135.68127084861825,35.00564160464176],[135.6811667694522,35.00559541954984],[135.68116589447666,35.00559502962042],[135.68096847739002,35.005552448430294],[135.68090491460242,35.005551289742094],[135.68082665130106,35.00554664876052],[135.68062223084866,35.00552168130642],[135.68038803495773,35.00551563805791],[135.68011377556212,35.005491964249615],[135.67996221318157,35.00547963832829],[135.67990001578383,35.00546549256069],[135.67982095366384,35.005438140846806],[135.67955426745357,35.005307156975476],[135.67910376288125,35.00509445544145],[135.67907392438295,35.0051378723878],[135.67906386524928,35.005149474729805],[135.67905533596522,35.00516209977462],[135.67903584158645,35.00519106648451],[135.67893623550154,35.00533246876139],[135.67855626320087,35.005753863972096],[135.6785487268443,35.005761894122884],[135.6786578285888,35.005817767501235],[135.67868897145624,35.005830362314484],[135.67892048335594,35.00590102797466],[135.67923872175592,35.006020132898506],[135.6792167477195,35.00604997651897],[135.6788597466605,35.00631208988278],[135.67881995636077,35.006342255894886],[135.67860320099246,35.00650418075924],[135.6785858195129,35.00650823641474],[135.67873562686273,35.00727257278625],[135.6784900963883,35.00737037198029],[135.6784044540638,35.00749548516682],[135.67797598591756,35.00746978423296],[135.67786890134877,35.00767029298583]]],"type":"Polygon"},"properties":{"KINDC":2,"NATURALC":2,"NEWCITYC":26111,"_ablepath_display_only":true,"_ablepath_geometry_transform":"NONE_WHOLE_SOURCE_FEATURE_INTERSECTION_SELECTION","scenario_id":"KYOTO_LANDSLIDE_2026_g_k_rzone","source_class":"NATURALC=2;KINDC=2","source_feature_id":"g_k_rzone:8315","source_id":"kyoto_city_landslide_gis_20260830","source_layer_id":"g_k_rzone"},"type":"Feature"},{"geometry":{"coordinates":[[[135.67108651529924,35.01380905556672],[135.67106268031932,35.01378437372806],[135.67106085476715,35.013785489303395],[135.67094792033345,35.013859013286236],[135.67088375870216,35.013901839272314],[135.67077811596502,35.01396032837763],[135.67074452293798,35.0139762833555],[135.67069969836973,35.01400600028815],[135.6706340187629,35.01404476542324],[135.67056651514957,35.01408998007094],[135.67058510651538,35.01411260415001],[135.67059873447943,35.014124243008574],[135.67080630813822,35.014034344921996],[135.67098287556976,35.013946945132396],[135.67113486332627,35.01387270931006],[135.67110639917473,35.0138356414089],[135.67108651529924,35.01380905556672]]],"type":"Polygon"},"properties":{"KINDC":2,"NATURALC":2,"NEWCITYC":26108,"_ablepath_display_only":true,"_ablepath_geometry_transform":"NONE_WHOLE_SOURCE_FEATURE_INTERSECTION_SELECTION","scenario_id":"KYOTO_LANDSLIDE_2026_g_k_rzone","source_class":"NATURALC=2;KINDC=2","source_feature_id":"g_k_rzone:8687","source_id":"kyoto_city_landslide_gis_20260830","source_layer_id":"g_k_rzone"},"type":"Feature"},{"geometry":{"coordinates":[[[135.67220302115396,35.01336847520829],[135.67210929029906,35.013366056711],[135.67209282414686,35.01336846872342],[135.67199347112822,35.01338884385405],[135.67190942117585,35.0134184552286],[135.67167985182226,35.01350500627083],[135.67139003038344,35.01361602002605],[135.67142673861034,35.01367696208144],[135.6714721482387,35.01372578672755],[135.6715116912127,35.01376946162757],[135.67155611757568,35.01380553143616],[135.6717035578627,35.013671385553266],[135.6718920568247,35.013592263318465],[135.67205778486922,35.013534398949396],[135.6722048531493,35.01350744122209],[135.6723634994738,35.01349484157786],[135.67256728004097,35.01347107442751],[135.67275609910868,35.013437803001395],[135.67275745798034,35.01339649425586],[135.6725712940981,35.01337198794005],[135.6723667929,35.01336990269829],[135.67220302115396,35.01336847520829]]],"type":"Polygon"},"properties":{"KINDC":2,"NATURALC":2,"NEWCITYC":26108,"_ablepath_display_only":true,"_ablepath_geometry_transform":"NONE_WHOLE_SOURCE_FEATURE_INTERSECTION_SELECTION","scenario_id":"KYOTO_LANDSLIDE_2026_g_k_rzone","source_class":"NATURALC=2;KINDC=2","source_feature_id":"g_k_rzone:8688","source_id":"kyoto_city_landslide_gis_20260830","source_layer_id":"g_k_rzone"},"type":"Feature"},{"geometry":{"coordinates":[[[135.67934088577965,35.004375277855935],[135.67943925688306,35.004412380673],[135.67944043807367,35.00441290664374],[135.67958972688393,35.0044795586939],[135.67976848803912,35.00456012584917],[135.67988989577245,35.00464893417727],[135.68002545056996,35.00475113943194],[135.68014533968983,35.00485306887513],[135.68032375053323,35.00506347272938],[135.6804997985216,35.00526189860242],[135.68061243582676,35.00536952379887],[135.68069626923287,35.00542937645501],[135.68078017689126,35.00547014517119],[135.68088870391506,35.00550502886436],[135.68104026942555,35.00555611676051],[135.68115099043612,35.00558187411368],[135.6811524695649,35.005581859969524],[135.6813937841562,35.00558020386265],[135.68159691571435,35.0055788077135],[135.68164534964203,35.005599380041915],[135.681709293614,35.00560962613936],[135.68191042178515,35.005387058051475],[135.6820315453758,35.00519343355487],[135.6821334923745,35.00502890317857],[135.68228358784728,35.00479140770749],[135.6822657447673,35.004696796997514],[135.68273661987953,35.00450154459912],[135.68274354278236,35.00388601314348],[135.68273700803582,35.00388448159781],[135.68297642001508,35.00363347122635],[135.68307379165745,35.003333329188635],[135.68311109568566,35.00316012829527],[135.68328713685304,35.00310515642884],[135.6834339026687,35.00277746785038],[135.68353983763828,35.00261993299219],[135.68363042901413,35.002298678409524],[135.683594419717,35.00215587307224],[135.68371776438318,35.00208883677299],[135.68396738017282,35.00186024341576],[135.68411169904647,35.001620630069226],[135.68421527987567,35.001424956332926],[135.68427675219803,35.00126505144588],[135.68438515609975,35.00108273183206],[135.68439114743637,35.00078064719808],[135.68440176792217,35.000651043597074],[135.68385569867115,35.00061556522234],[135.68385560007314,35.000615564965564],[135.68379145742477,35.00062372747543],[135.68373911423788,35.00063746472527],[135.68366818594436,35.000658103848835],[135.68356176925403,35.00069392130956],[135.68345701824413,35.00073528705284],[135.68315120549755,35.00085803553446],[135.68301271689086,35.00089792456761],[135.68282673568808,35.00095212187896],[135.6826766631863,35.00098727459417],[135.68267641096892,35.00098733703769],[135.68257080594447,35.001011337492585],[135.68257356475323,35.00102035939339],[135.68257730856163,35.00103247590733],[135.6825779372898,35.00103420837118],[135.6825786163976,35.001039916443766],[135.6824956330228,35.001169204420385],[135.6824529514169,35.001222802282406],[135.6809496042507,35.001391509716804],[135.68096266209537,35.00195064384286],[135.6809632725975,35.001954242306695],[135.68096293840355,35.00195566574858],[135.68079139556116,35.00219255341018],[135.68064626451806,35.00235648234599],[135.68055266080745,35.00245191791923],[135.68052945242687,35.002475556447884],[135.6803636430653,35.00258132196128],[135.68166625458488,35.00397569248407],[135.6816697278109,35.00397563848948],[135.68159696975528,35.0040039160343],[135.67951686751323,35.004086813051025],[135.6794695049149,35.004140244220686],[135.67946598375804,35.00413854016287],[135.6794614937591,35.004149282821594],[135.67946120767778,35.00414959757998],[135.67946134996254,35.00414963401441],[135.67944521496204,35.004188174243474],[135.67943495986984,35.004221970246256],[135.67943417369418,35.00422690821545],[135.67942541032235,35.00423779283696],[135.67934088577965,35.004375277855935]]],"type":"Polygon"},"properties":{"KINDC":1,"NATURALC":2,"NEWCITYC":26111,"_ablepath_display_only":true,"_ablepath_geometry_transform":"NONE_WHOLE_SOURCE_FEATURE_INTERSECTION_SELECTION","scenario_id":"KYOTO_LANDSLIDE_2026_g_k_yzone","source_class":"NATURALC=2;KINDC=1","source_feature_id":"g_k_yzone:8466","source_id":"kyoto_city_landslide_gis_20260830","source_layer_id":"g_k_yzone"},"type":"Feature"},{"geometry":{"coordinates":[[[135.68450727084186,34.999069284949435],[135.68461188007404,34.99948104131359],[135.684724645519,34.99966600915965],[135.68460561512467,34.999666240851205],[135.68464399838945,34.99974156815106],[135.6846471006624,34.99974963534229],[135.6846870496333,34.999853777641974],[135.68471122200694,34.999959605266014],[135.68482732591715,35.000141277791705],[135.68495139647123,35.00033540664093],[135.6852225794064,35.00024859552242],[135.68566547427648,35.00000478699088],[135.6858006566419,34.99963971748856],[135.6855618096419,34.99959943443051],[135.6852640449942,34.999549208212066],[135.6852577931804,34.99954682113983],[135.68507834742758,34.99947479715243],[135.68500310553685,34.999443600420804],[135.68492498985148,34.99940761839813],[135.68485846297102,34.9993692865317],[135.68478328531845,34.999321385609775],[135.68470461862856,34.999254887288224],[135.684644603169,34.999204149972634],[135.6845776340906,34.999138385100544],[135.6845727227171,34.99913356750939],[135.68450727084186,34.999069284949435]]],"type":"Polygon"},"properties":{"KINDC":1,"NATURALC":2,"NEWCITYC":26111,"_ablepath_display_only":true,"_ablepath_geometry_transform":"NONE_WHOLE_SOURCE_FEATURE_INTERSECTION_SELECTION","scenario_id":"KYOTO_LANDSLIDE_2026_g_k_yzone","source_class":"NATURALC=2;KINDC=1","source_feature_id":"g_k_yzone:8468","source_id":"kyoto_city_landslide_gis_20260830","source_layer_id":"g_k_yzone"},"type":"Feature"},{"geometry":{"coordinates":[[[135.68389239922587,34.99984077620135],[135.6839153694735,34.999870070648974],[135.68394943254407,34.99990635331241],[135.6839832177053,34.99994084131963],[135.68403633991207,34.99999506772913],[135.68409540206076,35.000080112764216],[135.68416953195137,35.00018408274464],[135.68419776580524,35.00022922963962],[135.68422968798487,35.00026677772471],[135.68427091308902,35.000315275799466],[135.68436378536387,35.000417112848396],[135.68436387266016,35.000417203222284],[135.6845292591523,35.00055900146908],[135.68474306344078,35.00074232068508],[135.68496517622492,35.000556058873286],[135.6851595578286,35.00033028546541],[135.6849668910229,35.00022298860988],[135.68470657738064,35.000078014665604],[135.68470597646646,35.000077589414495],[135.68463864059592,35.0000301324642],[135.68456002107007,34.99998260108353],[135.68438066836072,34.99988911233602],[135.6842447057132,34.999819589057836],[135.6841164588338,34.999754989695546],[135.68409716004882,34.99974526671517],[135.68402050377924,34.99971155059733],[135.68389239922587,34.99984077620135]]],"type":"Polygon"},"properties":{"KINDC":1,"NATURALC":2,"NEWCITYC":26111,"_ablepath_display_only":true,"_ablepath_geometry_transform":"NONE_WHOLE_SOURCE_FEATURE_INTERSECTION_SELECTION","scenario_id":"KYOTO_LANDSLIDE_2026_g_k_yzone","source_class":"NATURALC=2;KINDC=1","source_feature_id":"g_k_yzone:8469","source_id":"kyoto_city_landslide_gis_20260830","source_layer_id":"g_k_yzone"},"type":"Feature"},{"geometry":{"coordinates":[[[135.6767318332829,35.009286594018725],[135.67674954492875,35.00942437637348],[135.67677483148236,35.00957232941536],[135.67679191144074,35.0096534708895],[135.67682595732336,35.00984198621987],[135.67684386597625,35.00993253219264],[135.6768439197309,35.00993279376125],[135.676882706823,35.010044129056126],[135.67699477823697,35.01036582742837],[135.67733072057638,35.01027432957602],[135.6773872533742,35.0102250974751],[135.67742854163978,35.01022703718553],[135.67761787367934,35.010079059534235],[135.67793744598814,35.01001522761602],[135.6781545077288,35.00981416316776],[135.67832716947206,35.00987125103772],[135.67872393800894,35.009628869649326],[135.67842652709913,35.00937508528445],[135.67834638427618,35.009306694962554],[135.67834265143193,35.0093058376914],[135.67828096648935,35.00929166540983],[135.67814786899248,35.00922930062621],[135.67800908469542,35.00913352124601],[135.67771062482547,35.0089330992034],[135.67762573798456,35.00887609936962],[135.67761895770195,35.008884014274805],[135.67759154830432,35.00891374398584],[135.67695983120228,35.008815066519034],[135.6769093528564,35.008840551870406],[135.67689964107856,35.00884721490731],[135.67684392350665,35.00888155672384],[135.67683945913572,35.00888284295122],[135.67677302343603,35.008898342575485],[135.67677390764266,35.0089047453482],[135.6767690388713,35.00891413468757],[135.6767698400413,35.00890543766109],[135.67676174164174,35.008986593229466],[135.6767318332829,35.009286594018725]]],"type":"Polygon"},"properties":{"KINDC":1,"NATURALC":2,"NEWCITYC":26111,"_ablepath_display_only":true,"_ablepath_geometry_transform":"NONE_WHOLE_SOURCE_FEATURE_INTERSECTION_SELECTION","scenario_id":"KYOTO_LANDSLIDE_2026_g_k_yzone","source_class":"NATURALC=2;KINDC=1","source_feature_id":"g_k_yzone:8470","source_id":"kyoto_city_landslide_gis_20260830","source_layer_id":"g_k_yzone"},"type":"Feature"},{"geometry":{"coordinates":[[[135.67653863672118,35.01179952285014],[135.6765415996396,35.011798367853736],[135.6765534394682,35.01179397320255],[135.6765630300967,35.01179034781826],[135.67657513377372,35.01178572850129],[135.67659106872236,35.01177925335503],[135.67659105812044,35.0117791631801],[135.67660855017576,35.011772376666976],[135.67667688768415,35.01174474846788],[135.6766982061509,35.011726198976376],[135.67679368710773,35.01167825182541],[135.67680992412733,35.011678538456586],[135.67683840098866,35.011664650555176],[135.67683841230001,35.01166456043859],[135.67684712933297,35.01165181887504],[135.67685696196955,35.01163679956952],[135.67686793006868,35.011625596491186],[135.6769201197623,35.01160281111495],[135.67692085400898,35.011602777010665],[135.67693061470078,35.011603262739065],[135.67693939442532,35.01160522426156],[135.67695487441566,35.011602975736274],[135.67696574258918,35.01160046252444],[135.67696627961365,35.011600427895004],[135.6770085260496,35.01158456632749],[135.67700873004048,35.01158284506842],[135.67700961406092,35.01158094532555],[135.67701034518242,35.011578918970415],[135.677012691481,35.01157295750272],[135.67702406839572,35.011563666607884],[135.67703583423148,35.011558568568184],[135.6771080002152,35.01152692075392],[135.67711242302457,35.011525093526885],[135.6771866865089,35.01148385963662],[135.6771957535214,35.0114796288265],[135.67730518774167,35.01119588559403],[135.67724536302754,35.011009086795205],[135.6772885238959,35.010930485452],[135.6769625601184,35.01087159093557],[135.6767538060513,35.01083386769182],[135.676753543942,35.01083365064166],[135.67655070822508,35.01065638669291],[135.67641031664144,35.010554056571436],[135.67591997476364,35.010477484874116],[135.67579876147278,35.01047716117729],[135.67578692830335,35.01047712957063],[135.67569085197428,35.01046237731536],[135.67559391743663,35.01058451947989],[135.6755868326825,35.010583436813405],[135.67553407075405,35.01059304965756],[135.67537534366892,35.01068364637907],[135.67534157697708,35.01075798118475],[135.67540512455258,35.01077508069269],[135.6754231228876,35.01080929442324],[135.67543231839466,35.01081691837939],[135.6754806878506,35.010856973684156],[135.67554772796117,35.0109469209896],[135.6756114536555,35.0110632633675],[135.6756879473436,35.01119547860052],[135.67579966058864,35.01134890923028],[135.67601045516543,35.01160293753844],[135.67609716523302,35.011728734286514],[135.6760974052521,35.0117289963524],[135.6762692303261,35.01191565274315],[135.67626923050372,35.011915607670275],[135.6763845297915,35.01187126548024],[135.676380367927,35.01185968856356],[135.67646046258332,35.011829225169016],[135.67653863672118,35.01179952285014]]],"type":"Polygon"},"properties":{"KINDC":1,"NATURALC":2,"NEWCITYC":26111,"_ablepath_display_only":true,"_ablepath_geometry_transform":"NONE_WHOLE_SOURCE_FEATURE_INTERSECTION_SELECTION","scenario_id":"KYOTO_LANDSLIDE_2026_g_k_yzone","source_class":"NATURALC=2;KINDC=1","source_feature_id":"g_k_yzone:8472","source_id":"kyoto_city_landslide_gis_20260830","source_layer_id":"g_k_yzone"},"type":"Feature"},{"geometry":{"coordinates":[[[135.6774081779982,35.01080066773203],[135.67741794290234,35.010822382982084],[135.67744616224024,35.010885155011046],[135.67744619486263,35.01088521820044],[135.67748174932797,35.0109411405338],[135.67748229535837,35.01094160173289],[135.67755765455215,35.01100348032424],[135.6776421989275,35.01107291051277],[135.67782144809487,35.01094835294904],[135.67795335965553,35.01078839512043],[135.67810849941333,35.01063673815458],[135.67810295046192,35.01056525512438],[135.67818263684023,35.0105266492505],[135.67811672236215,35.01045077827451],[135.67808072732677,35.01040936857489],[135.67808069470414,35.010409305385664],[135.67804922463705,35.010362354639675],[135.67804767497773,35.01036077296174],[135.67802087226022,35.01033345952829],[135.677978856697,35.01029062753858],[135.67787494060758,35.01038348237737],[135.67780067383165,35.010428692161334],[135.67765456342437,35.01056609347865],[135.6774778644896,35.0106998615608],[135.6774081779982,35.01080066773203]]],"type":"Polygon"},"properties":{"KINDC":1,"NATURALC":2,"NEWCITYC":26111,"_ablepath_display_only":true,"_ablepath_geometry_transform":"NONE_WHOLE_SOURCE_FEATURE_INTERSECTION_SELECTION","scenario_id":"KYOTO_LANDSLIDE_2026_g_k_yzone","source_class":"NATURALC=2;KINDC=1","source_feature_id":"g_k_yzone:8473","source_id":"kyoto_city_landslide_gis_20260830","source_layer_id":"g_k_yzone"},"type":"Feature"},{"geometry":{"coordinates":[[[135.67771988316022,35.007564254442286],[135.6778027559828,35.00762322308695],[135.6780242350621,35.007780837406415],[135.6780470091039,35.00780710347519],[135.67806722653071,35.00783433634395],[135.67830678968923,35.00809704611683],[135.6783794042512,35.00815703288044],[135.67842843694527,35.008181565514576],[135.67853925500265,35.00822241606959],[135.67861669200408,35.0082400464896],[135.6786759795834,35.00824508940362],[135.67870647655167,35.00824377285649],[135.67877501488346,35.00822269765032],[135.67884133728705,35.0082023106723],[135.67886248960707,35.00820909158352],[135.6788862036343,35.00820800044191],[135.67890645052512,35.0082053586147],[135.67891584380752,35.00820724048542],[135.6789161612948,35.00820730442798],[135.67917079320628,35.00823715822021],[135.67945818114904,35.008270839073745],[135.67950922249577,35.00798272960275],[135.67945498062127,35.00771503981014],[135.67954905019332,35.00772678190061],[135.67992079175414,35.0074871159376],[135.67995945882106,35.00729247383266],[135.6801899987926,35.0073608447784],[135.68065397032422,35.007221824982274],[135.6809059270836,35.0070060541954],[135.68125463964566,35.00671058580446],[135.68131048499984,35.00646728203409],[135.68133892694775,35.006331766922706],[135.6813693844506,35.006204803007655],[135.68138919315004,35.006170914736536],[135.6814128044445,35.006128337277005],[135.68151257350038,35.00599775101998],[135.68164892956898,35.005809368364915],[135.68138503398555,35.00569226942325],[135.6811667694522,35.00559541954984],[135.68116589447666,35.00559502962042],[135.68096847739002,35.005552448430294],[135.68090491460242,35.005551289742094],[135.68082665130106,35.00554664876052],[135.68062223084866,35.00552168130642],[135.68038803495773,35.00551563805791],[135.68011377556212,35.005491964249615],[135.67996221318157,35.00547963832829],[135.67990001578383,35.00546549256069],[135.67982095366384,35.005438140846806],[135.67955426745357,35.005307156975476],[135.67903079874543,35.00506000675078],[135.67893577705647,35.005015141810034],[135.67890617023053,35.005060939203766],[135.678899306089,35.005070801135666],[135.67889015008134,35.00508399243598],[135.67887020752713,35.00511268749361],[135.67877837198887,35.005242138704524],[135.67839550784893,35.00565488970228],[135.67836152055162,35.005736436581415],[135.67899366859507,35.00600807251944],[135.67871524245282,35.006220352747704],[135.67869001788915,35.00624644657625],[135.67850850403758,35.0063647433668],[135.6784557264766,35.00640433125812],[135.67860147732335,35.00721661513809],[135.67837286811914,35.00727402807502],[135.67829693333755,35.00738227340566],[135.6778469799579,35.00737066811517],[135.67771988316022,35.007564254442286]]],"type":"Polygon"},"properties":{"KINDC":1,"NATURALC":2,"NEWCITYC":26111,"_ablepath_display_only":true,"_ablepath_geometry_transform":"NONE_WHOLE_SOURCE_FEATURE_INTERSECTION_SELECTION","scenario_id":"KYOTO_LANDSLIDE_2026_g_k_yzone","source_class":"NATURALC=2;KINDC=1","source_feature_id":"g_k_yzone:8474","source_id":"kyoto_city_landslide_gis_20260830","source_layer_id":"g_k_yzone"},"type":"Feature"},{"geometry":{"coordinates":[[[135.67056651514957,35.01408998007094],[135.67058510651538,35.01411260415001],[135.67061688326575,35.014139742494244],[135.6706929007581,35.01420466503718],[135.67089071254537,35.014164042420056],[135.67107137498726,35.01407305946124],[135.67121283321595,35.01401602022762],[135.6712109005658,35.01401241002809],[135.6711686617557,35.01393352276004],[135.67116207639089,35.013921224241386],[135.6711349439901,35.0138728140987],[135.67110639917473,35.0138356414089],[135.67108651529924,35.01380905556672],[135.67106268031932,35.01378437372806],[135.67106085476715,35.013785489303395],[135.67094792033345,35.013859013286236],[135.67088375870216,35.013901839272314],[135.67077811596502,35.01396032837763],[135.67074452293798,35.0139762833555],[135.67069969836973,35.01400600028815],[135.6706340187629,35.01404476542324],[135.67056651514957,35.01408998007094]]],"type":"Polygon"},"properties":{"KINDC":1,"NATURALC":2,"NEWCITYC":26108,"_ablepath_display_only":true,"_ablepath_geometry_transform":"NONE_WHOLE_SOURCE_FEATURE_INTERSECTION_SELECTION","scenario_id":"KYOTO_LANDSLIDE_2026_g_k_yzone","source_class":"NATURALC=2;KINDC=1","source_feature_id":"g_k_yzone:8854","source_id":"kyoto_city_landslide_gis_20260830","source_layer_id":"g_k_yzone"},"type":"Feature"},{"geometry":{"coordinates":[[[135.67139003038344,35.01361602002605],[135.67142673861034,35.01367696208144],[135.6714721482387,35.01372578672755],[135.6715116912127,35.01376946162757],[135.6715789909885,35.01382410314118],[135.67160809029141,35.01383966005517],[135.6716972720325,35.013892033118715],[135.6717964488269,35.013773043636796],[135.67195621965146,35.01371112112482],[135.6721109758644,35.01366164492448],[135.67222607676777,35.01363249858988],[135.67236341226686,35.013622487198816],[135.6725773238967,35.01361252990185],[135.67277371310487,35.01357580461911],[135.67274921553488,35.013487940237844],[135.67275609910868,35.013437803001395],[135.67275906365958,35.01334768957951],[135.67264835559405,35.013307105408295],[135.67253481241752,35.01331917986831],[135.6724746400837,35.013323614990284],[135.67238651836885,35.013330228311595],[135.6722927992132,35.01333917026916],[135.67209282414686,35.01336846872342],[135.67199347112822,35.01338884385405],[135.67190942117585,35.0134184552286],[135.67167985182226,35.01350500627083],[135.67139003038344,35.01361602002605]]],"type":"Polygon"},"properties":{"KINDC":1,"NATURALC":2,"NEWCITYC":26108,"_ablepath_display_only":true,"_ablepath_geometry_transform":"NONE_WHOLE_SOURCE_FEATURE_INTERSECTION_SELECTION","scenario_id":"KYOTO_LANDSLIDE_2026_g_k_yzone","source_class":"NATURALC=2;KINDC=1","source_feature_id":"g_k_yzone:8855","source_id":"kyoto_city_landslide_gis_20260830","source_layer_id":"g_k_yzone"},"type":"Feature"}],"type":"FeatureCollection"}
